{"type":"FeatureCollection","features":[{"type":"Feature","properties":{"name":"Sân bay phía Nam (quy hoạch)","kind":"planned"},"geometry":{"type":"Polygon","coordinates":[[[105.837578,20.70378],[105.838265,20.703532],[105.840292,20.702797],[105.864258,20.69409],[105.865116,20.693777],[105.865116,20.673102],[105.855425,20.673102],[105.853215,20.673905],[105.83364,20.681017],[105.829086,20.682671],[105.834754,20.696778],[105.837578,20.70378]]]}},{"type":"Feature","properties":{"name":"Sân bay phía Nam (quy hoạch)","kind":"planned"},"geometry":{"type":"Polygon","coordinates":[[[105.865116,20.674708],[105.865116,20.669581],[105.864258,20.669893],[105.853215,20.673905],[105.851005,20.674708],[105.865116,20.674708]]]}},{"type":"Feature","properties":{"name":"Sân bay phía Nam (quy hoạch)","kind":"planned"},"geometry":{"type":"Polygon","coordinates":[[[105.8634,20.694401],[105.864258,20.69409],[105.876821,20.689526],[105.877068,20.689438],[105.87732,20.689353],[105.882913,20.68732],[105.891311,20.684269],[105.887126,20.673905],[105.886802,20.673102],[105.8634,20.673102],[105.8634,20.694401]]]}},{"type":"Feature","properties":{"name":"Sân bay phía Nam (quy hoạch)","kind":"planned"},"geometry":{"type":"Polygon","coordinates":[[[105.887448,20.674708],[105.887126,20.673905],[105.886585,20.67257],[105.882787,20.663159],[105.869016,20.668166],[105.864258,20.669893],[105.8634,20.670206],[105.8634,20.674708],[105.887448,20.674708]]]}},{"type":"Feature","properties":{"name":"Sân bay phía Nam (quy hoạch)","kind":"planned","_lbl":1},"geometry":{"type":"Point","coordinates":[105.8643,20.6817]}},{"type":"Feature","properties":{"name":"Sân bay Nội Bài","kind":"existing","_lbl":1},"geometry":{"type":"Point","coordinates":[105.8072,21.2212]}}]}