{"type":"FeatureCollection","features":[{"type":"Feature","geometry":{"type":"LineString","coordinates":[[105.8028039,20.9911836],[105.7997135,20.9890189],[105.7965884,20.9868301],[105.7941328,20.9850925],[105.7939728,20.9849862],[105.7938042,20.9848768],[105.7936124,20.9847278],[105.7934732,20.9846141],[105.7930346,20.9842949],[105.7925731,20.9839539],[105.7921847,20.9836579],[105.7920511,20.9835561],[105.7911794,20.9828879],[105.7906549,20.9824621],[105.7904024,20.9822529],[105.7901353,20.9820426],[105.7891083,20.9812109],[105.7875731,20.9799863],[105.7870249,20.979534],[105.784762,20.9777421],[105.784107,20.9772225],[105.7832784,20.9765893],[105.7822349,20.9758023],[105.7807781,20.9747035],[105.7804496,20.9744685],[105.7795886,20.9738525],[105.7790038,20.9734617],[105.7784244,20.9730372],[105.7777407,20.972538],[105.7764156,20.9714824],[105.7759555,20.971068],[105.7754895,20.970682],[105.7753841,20.9705958],[105.7749863,20.9702707],[105.7747737,20.9700969],[105.7745552,20.9699184],[105.7745054,20.9698777],[105.774212,20.9696465],[105.7706867,20.9668765],[105.7703657,20.966628],[105.7701713,20.9664815],[105.7697516,20.9661295],[105.7687309,20.9653466],[105.7671965,20.9641538],[105.7670769,20.9640608],[105.7667964,20.9638428],[105.7667241,20.9637866],[105.7663678,20.9635097],[105.766345,20.963492],[105.7650633,20.962494],[105.7644629,20.9620134],[105.7614814,20.9596888],[105.7575,20.9566278],[105.7566242,20.9559835],[105.7565206,20.9559073],[105.756183,20.9556553],[105.7557587,20.9553385],[105.7556956,20.9552919],[105.755636,20.955248],[105.7552688,20.954977],[105.7544305,20.9543584],[105.7541263,20.954116],[105.7528375,20.95313],[105.7510082,20.9517517],[105.7501001,20.9510657],[105.7489173,20.9501808],[105.7488816,20.9501541],[105.7484068,20.949796]]},"properties":{"name":"Đường sắt đô thị 2A Hà Nội (Phân đoạn Cát Linh - Hà Đông)","line":"2A","status":"operational"}},{"type":"Feature","geometry":{"type":"LineString","coordinates":[[105.758619,20.9500315],[105.7577084,20.9503221],[105.7563754,20.9507818],[105.7554893,20.9510559],[105.7550839,20.9511976],[105.7546721,20.9513484],[105.7543711,20.9514793],[105.7542095,20.9515558],[105.7540351,20.9516603],[105.7537434,20.9518287],[105.7535214,20.9519791],[105.7534343,20.9520235],[105.7533109,20.9520892],[105.7531815,20.9521325],[105.7530521,20.9521769],[105.7528576,20.9522233],[105.7525693,20.9522571],[105.752411,20.9522671],[105.7523131,20.9522602],[105.7521623,20.9522477],[105.7520054,20.9522164],[105.7518813,20.9521794],[105.7517077,20.9521187],[105.7515675,20.9520504],[105.7514589,20.9519989],[105.7513918,20.9519671],[105.7512317,20.951874]]},"properties":{"name":"Nhánh ra vào Depot Phú Lương","line":"2A","status":"operational"}},{"type":"Feature","geometry":{"type":"LineString","coordinates":[[105.758629,20.9500641],[105.7577178,20.9503597],[105.7563874,20.9508168],[105.7555063,20.9510861],[105.7551294,20.9512201],[105.7550108,20.9512702],[105.7549062,20.9513172],[105.7546668,20.9514493],[105.7546111,20.9514919],[105.7545293,20.9515432],[105.7544696,20.9515895],[105.7543952,20.9516565],[105.7543255,20.951716],[105.7542497,20.9518006],[105.7542094,20.9518469],[105.7541404,20.9519327],[105.7540921,20.9520035],[105.7540264,20.9521055],[105.7539821,20.952192],[105.7539365,20.9522922],[105.7538896,20.9524418],[105.7538708,20.9525126],[105.7538474,20.9526115],[105.7538293,20.9527098],[105.7538185,20.9527925],[105.753816,20.9528367],[105.7538152,20.9529384],[105.7538165,20.9530323],[105.7538279,20.9532014],[105.7538547,20.9533179],[105.7538849,20.9534287],[105.7539144,20.953517],[105.7539533,20.9536185],[105.754015,20.9537475],[105.7540834,20.9538727],[105.7541572,20.9539823],[105.7541752,20.9540062],[105.7542644,20.9541251],[105.7543523,20.9542146],[105.7544254,20.9542779],[105.7545442,20.9543875]]},"properties":{"name":"Nhánh ra vào Depot Phú Lương","line":"2A","status":"operational"}},{"type":"Feature","geometry":{"type":"LineString","coordinates":[[105.7700785,20.9474343],[105.7700383,20.9474474],[105.7699998,20.9474599],[105.7698441,20.9475103],[105.7697253,20.9475462],[105.7696099,20.9475718],[105.7694849,20.9475851],[105.7693641,20.9475885],[105.7691996,20.9475805],[105.7688252,20.9475505],[105.768721,20.9475404],[105.7685742,20.9475203]]},"properties":{"name":"Đường sắt đô thị","line":"khác","status":"operational"}},{"type":"Feature","geometry":{"type":"LineString","coordinates":[[105.768907,20.9475921],[105.7691571,20.9476268],[105.7692754,20.9476333],[105.7694012,20.9476345],[105.7695302,20.9476295],[105.7696084,20.9476189],[105.7697125,20.9476033],[105.7698253,20.9475751],[105.7700292,20.9475083],[105.7700573,20.9474991],[105.7700949,20.9474868]]},"properties":{"name":"Đường sắt đô thị","line":"khác","status":"operational"}},{"type":"Feature","geometry":{"type":"LineString","coordinates":[[105.7701214,20.9475626],[105.7700851,20.9475744],[105.7700522,20.9475852],[105.7699289,20.9476256],[105.7698067,20.9476595],[105.7696615,20.9476797],[105.7695259,20.9476857],[105.7693851,20.9476835],[105.7692734,20.9476689],[105.7691558,20.9476482],[105.768907,20.9475921],[105.7685742,20.9475203],[105.7683128,20.9474608]]},"properties":{"name":"Đường sắt đô thị","line":"khác","status":"operational"}},{"type":"Feature","geometry":{"type":"LineString","coordinates":[[105.7688353,20.9476416],[105.7690444,20.9477013],[105.7692519,20.9477475],[105.7694086,20.9477677],[105.7695351,20.9477719],[105.7696481,20.9477637],[105.7697625,20.9477551],[105.7698824,20.9477315],[105.7700017,20.9476978],[105.7700756,20.9476726],[105.7701162,20.9476588],[105.7701549,20.9476462]]},"properties":{"name":"Đường sắt đô thị","line":"khác","status":"operational"}},{"type":"Feature","geometry":{"type":"LineString","coordinates":[[105.7671422,20.947414],[105.7674993,20.9473956],[105.7677481,20.9473836],[105.7678773,20.9473879],[105.767998,20.9473945],[105.7680847,20.9474093],[105.7681523,20.9474268],[105.7682739,20.9474526],[105.7683128,20.9474608],[105.7684434,20.9475024],[105.768561,20.9475419],[105.7688043,20.9476303],[105.7688353,20.9476416],[105.7690372,20.947715],[105.7691517,20.9477549],[105.7692453,20.9477836],[105.7693566,20.9478038],[105.7694971,20.9478179],[105.7696343,20.9478195],[105.7697524,20.947814],[105.7698735,20.9477953],[105.76998,20.9477705],[105.7700934,20.9477361],[105.7701396,20.9477221],[105.7701782,20.9477095]]},"properties":{"name":"Đường sắt đô thị","line":"khác","status":"operational"}},{"type":"Feature","geometry":{"type":"LineString","coordinates":[[105.7653816,20.947819],[105.7655443,20.9477773],[105.765605,20.9477647],[105.7656789,20.9477519],[105.765758,20.9477361],[105.7658866,20.9477048],[105.7659028,20.9476993],[105.7659271,20.9476911],[105.7663255,20.9475564],[105.7663457,20.9475496],[105.7664843,20.9475145],[105.766592,20.9474899],[105.7668346,20.9474471],[105.7668606,20.9474416],[105.7669758,20.947424],[105.7670679,20.9474151],[105.7671422,20.947414],[105.7673713,20.9474233],[105.7674955,20.9474369],[105.7675886,20.9474538],[105.7676824,20.9474739],[105.7680683,20.9475563],[105.7681746,20.9475877],[105.7682791,20.947627],[105.7683168,20.947644],[105.7683977,20.9476803],[105.7685184,20.9477419],[105.7686334,20.9478063],[105.7687249,20.9478692],[105.7691714,20.9481813]]},"properties":{"name":"Đường sắt đô thị","line":"khác","status":"operational"}},{"type":"Feature","geometry":{"type":"LineString","coordinates":[[105.7676824,20.9474739],[105.7677949,20.9475062],[105.7678772,20.9475337],[105.7680451,20.9475946],[105.768178,20.9476454],[105.7682921,20.9476944],[105.7683303,20.9477145],[105.7683956,20.947749],[105.7688764,20.9480794]]},"properties":{"name":"Đường sắt đô thị","line":"khác","status":"operational"}},{"type":"Feature","geometry":{"type":"LineString","coordinates":[[105.7658125,20.9475572],[105.7658723,20.9475376],[105.7661868,20.9474346],[105.7662974,20.9474048],[105.7664065,20.9473818],[105.7665055,20.9473664],[105.7665955,20.947362],[105.7667701,20.9473522],[105.7668361,20.9473488],[105.7669667,20.9473302]]},"properties":{"name":"Đường sắt đô thị","line":"khác","status":"operational"}},{"type":"Feature","geometry":{"type":"LineString","coordinates":[[105.7698404,20.9468174],[105.7698097,20.9468274],[105.7697543,20.9468441],[105.7696348,20.9468801],[105.7695158,20.9469049],[105.7692502,20.9469531],[105.7690508,20.9469872],[105.7686074,20.9470697],[105.7682299,20.9471377],[105.767647,20.9472485],[105.7676342,20.9472509],[105.7675585,20.9472648],[105.767543,20.9472677],[105.7670592,20.9473598],[105.7670408,20.947363],[105.7668797,20.9473912],[105.7668589,20.9473948],[105.7665927,20.9474412],[105.7665626,20.9474478],[105.7664619,20.9474699],[105.7663393,20.9475045],[105.765631,20.9477371],[105.7653816,20.947819],[105.7653569,20.9478271],[105.7638545,20.9483215],[105.763337,20.948494],[105.760785,20.9493444],[105.758629,20.9500641]]},"properties":{"name":"Nhánh ra vào Depot Phú Lương","line":"2A","status":"operational"}},{"type":"Feature","geometry":{"type":"LineString","coordinates":[[105.758619,20.9500315],[105.7607728,20.9493176],[105.763332,20.9484658],[105.7638429,20.9482958],[105.764201,20.9481771],[105.7663962,20.9474496],[105.7665016,20.9474204],[105.7666166,20.9473954],[105.7669667,20.9473302],[105.7669829,20.9473266],[105.7670349,20.947315],[105.7670491,20.9473118],[105.7675356,20.9472222],[105.7675518,20.9472194],[105.7676913,20.9471949],[105.7677028,20.9471929],[105.767982,20.9471414],[105.7687504,20.9469997],[105.7691764,20.9469228],[105.7692973,20.9468988],[105.7693883,20.9468755],[105.7697263,20.9467616],[105.7697789,20.9467439],[105.7698084,20.9467343]]},"properties":{"name":"Nhánh ra vào Depot Phú Lương","line":"2A","status":"operational"}},{"type":"Feature","geometry":{"type":"LineString","coordinates":[[105.7484438,20.9497634],[105.7488486,20.9500749],[105.7489156,20.9501264],[105.7501432,20.9510497],[105.7510369,20.9517276],[105.7512026,20.9518521],[105.7512317,20.951874],[105.7514237,20.9520218],[105.7515283,20.9521023],[105.7528751,20.9531125],[105.7541709,20.9541072],[105.7543575,20.9542505],[105.7545442,20.9543875],[105.7545942,20.9544242],[105.7546767,20.9544846],[105.7552907,20.9549303],[105.7553326,20.9549607],[105.755694,20.9552312],[105.7557753,20.955292],[105.7562116,20.9556221],[105.756548,20.9558765],[105.7565955,20.9559118],[105.7575247,20.9566021],[105.7600817,20.9585727],[105.7615057,20.9596702],[105.7644879,20.9619854],[105.7650934,20.9624719],[105.7663256,20.9634345],[105.766371,20.96347],[105.7668214,20.9638218],[105.7671919,20.9641112],[105.7687502,20.9653284],[105.7697728,20.966104],[105.7701968,20.9664665],[105.7707087,20.9668482],[105.774234,20.9696319],[105.7745314,20.9698607],[105.7750059,20.9702497],[105.7753665,20.9705454],[105.7755015,20.970656],[105.7759803,20.9710461],[105.7764443,20.9714554],[105.7777493,20.9724934],[105.7784526,20.9730209],[105.7790346,20.9734429],[105.7796073,20.9738286],[105.7807937,20.974675],[105.7822605,20.9757785],[105.7833069,20.9765657],[105.7841304,20.977203],[105.7847894,20.9777105],[105.7870442,20.9795112],[105.7876004,20.9799625],[105.7891251,20.9811916],[105.7900908,20.9819493],[105.7901704,20.9820118],[105.7912146,20.9828633],[105.7920635,20.983522],[105.7924603,20.9838185],[105.7927024,20.9839994],[105.7930607,20.9842637],[105.7934932,20.9845864],[105.793709,20.9847566],[105.7939276,20.9849187],[105.7941557,20.9850661],[105.7966152,20.9868114],[105.7997392,20.9889939],[105.8028234,20.9911559]]},"properties":{"name":"Đường sắt đô thị 2A Hà Nội (Phân đoạn Cát Linh - Hà Đông)","line":"2A","status":"operational"}},{"type":"Feature","geometry":{"type":"LineString","coordinates":[[105.8273419,21.0273248],[105.8274034,21.0270748],[105.8274552,21.0268195]]},"properties":{"name":"Đường sắt đô thị 2A Hà Nội (Phân đoạn Cát Linh - Hà Đông)","line":"2A","status":"operational"}},{"type":"Feature","geometry":{"type":"LineString","coordinates":[[105.8274139,21.0273327],[105.8274034,21.0270748],[105.8274004,21.0268131]]},"properties":{"name":"Đường sắt đô thị 2A Hà Nội (Phân đoạn Cát Linh - Hà Đông)","line":"2A","status":"operational"}},{"type":"Feature","geometry":{"type":"LineString","coordinates":[[105.7685113,20.9472184],[105.769113,20.9472708]]},"properties":{"name":"Đường sắt đô thị","line":"khác","status":"operational"}},{"type":"Feature","geometry":{"type":"LineString","coordinates":[[105.7683014,20.9472073],[105.7684155,20.9471999],[105.7685176,20.9471929],[105.7685945,20.947193],[105.7686953,20.9471948],[105.7687833,20.947199],[105.7691194,20.9472242]]},"properties":{"name":"Đường sắt đô thị","line":"khác","status":"operational"}},{"type":"Feature","geometry":{"type":"LineString","coordinates":[[105.767647,20.9472485],[105.7677874,20.9472299],[105.7678772,20.9472208],[105.76798,20.9472168],[105.7681817,20.9472103],[105.7683014,20.9472073]]},"properties":{"name":"Đường sắt đô thị","line":"khác","status":"operational"}},{"type":"Feature","geometry":{"type":"LineString","coordinates":[[105.7699248,20.9470401],[105.7716001,20.9464947]]},"properties":{"name":"Đường sắt đô thị","line":"khác","status":"operational"}},{"type":"Feature","geometry":{"type":"LineString","coordinates":[[105.7699058,20.9470012],[105.7715853,20.9464544]]},"properties":{"name":"Đường sắt đô thị","line":"khác","status":"operational"}},{"type":"Feature","geometry":{"type":"LineString","coordinates":[[105.7698584,20.9468745],[105.7715385,20.9463275]]},"properties":{"name":"Đường sắt đô thị","line":"khác","status":"operational"}},{"type":"Feature","geometry":{"type":"LineString","coordinates":[[105.7698929,20.9469592],[105.7715701,20.9464132]]},"properties":{"name":"Đường sắt đô thị","line":"khác","status":"operational"}},{"type":"Feature","geometry":{"type":"LineString","coordinates":[[105.7698758,20.9469182],[105.7715548,20.9463716]]},"properties":{"name":"Đường sắt đô thị","line":"khác","status":"operational"}},{"type":"Feature","geometry":{"type":"LineString","coordinates":[[105.7683014,20.9472073],[105.7684209,20.9472113],[105.7685113,20.9472184],[105.7686319,20.9472366],[105.7687237,20.9472537],[105.7688225,20.947279],[105.7689114,20.9472954],[105.7689884,20.947307],[105.7691099,20.9473171]]},"properties":{"name":"Đường sắt đô thị","line":"khác","status":"operational"}},{"type":"Feature","geometry":{"type":"LineString","coordinates":[[105.7670592,20.9473598],[105.7673043,20.947289],[105.7675356,20.9472222]]},"properties":{"name":"Đường sắt đô thị","line":"khác","status":"operational"}},{"type":"Feature","geometry":{"type":"LineString","coordinates":[[105.7670491,20.9473118],[105.7673043,20.947289],[105.767543,20.9472677]]},"properties":{"name":"Đường sắt đô thị","line":"khác","status":"operational"}},{"type":"Feature","geometry":{"type":"LineString","coordinates":[[105.7658866,20.9477048],[105.7657157,20.9477601],[105.7653391,20.9478821]]},"properties":{"name":"Đường sắt đô thị","line":"khác","status":"operational"}},{"type":"Feature","geometry":{"type":"LineString","coordinates":[[105.769824,20.9467815],[105.7715042,20.9462345]]},"properties":{"name":"Đường sắt đô thị","line":"khác","status":"operational"}},{"type":"Feature","geometry":{"type":"LineString","coordinates":[[105.7683729,20.946942],[105.7692266,20.94652]]},"properties":{"name":"Đường sắt đô thị","line":"khác","status":"operational"}},{"type":"Feature","geometry":{"type":"LineString","coordinates":[[105.769784,20.9466711],[105.7714636,20.9461243]]},"properties":{"name":"Đường sắt đô thị","line":"khác","status":"operational"}},{"type":"Feature","geometry":{"type":"LineString","coordinates":[[105.7480755,20.9495408],[105.7479958,20.9494812],[105.7478717,20.9493878],[105.7478541,20.9493746],[105.7475734,20.9491633],[105.7475559,20.9491501],[105.7471995,20.9488818],[105.7465051,20.9483458],[105.746402,20.9482663]]},"properties":{"name":"Đường sắt đô thị 2A Hà Nội (Phân đoạn Cát Linh - Hà Đông)","line":"2A","status":"operational"}},{"type":"Feature","geometry":{"type":"LineString","coordinates":[[105.7464253,20.9482417],[105.7465206,20.9483137],[105.7472263,20.9488467],[105.74758,20.9491108],[105.7475977,20.949124],[105.7478818,20.9493361],[105.7478975,20.9493478],[105.7480164,20.9494366],[105.7481062,20.9495036]]},"properties":{"name":"Đường sắt đô thị 2A Hà Nội (Phân đoạn Cát Linh - Hà Đông)","line":"2A","status":"operational"}},{"type":"Feature","geometry":{"type":"LineString","coordinates":[[105.7475977,20.949124],[105.7477272,20.9492495],[105.7477581,20.9492794],[105.7478541,20.9493746]]},"properties":{"name":"Đường sắt đô thị 2A Hà Nội (Phân đoạn Cát Linh - Hà Đông)","line":"2A","status":"operational"}},{"type":"Feature","geometry":{"type":"LineString","coordinates":[[105.8156769,21.007059],[105.8155663,21.0072634],[105.8155207,21.0073535],[105.8154858,21.0074396],[105.8153792,21.0077476],[105.8153508,21.0078577],[105.8153285,21.0079409],[105.8153047,21.0080581],[105.8152814,21.0082187],[105.8152669,21.0083596],[105.8152555,21.0085893],[105.8152626,21.0087291],[105.815276,21.0088652],[105.8153095,21.0090846],[105.8153377,21.0091842],[105.8153873,21.0093476],[105.8154273,21.0094637],[105.8154503,21.0095372],[105.8154845,21.0096247],[105.8156073,21.009872],[105.8156817,21.0100092],[105.8157628,21.0101357],[105.815923,21.0103553],[105.8159918,21.0104518],[105.8165446,21.011147],[105.8170993,21.0118515],[105.8173989,21.01222],[105.8176859,21.0125664],[105.8184972,21.0134578],[105.8187745,21.0137763],[105.8194546,21.0145187],[105.8202152,21.0153351],[105.8205854,21.0157123],[105.8208771,21.0160216],[105.8209927,21.0161081],[105.8211058,21.0161812],[105.8212855,21.0163106],[105.8213858,21.0163695],[105.8216187,21.0164916],[105.8217662,21.0165614],[105.8221801,21.0167299],[105.8226024,21.0169043],[105.8228553,21.0170179],[105.8231422,21.0171514],[105.8233616,21.0172782],[105.823621,21.0174669],[105.8237471,21.0175745],[105.8238816,21.017691],[105.8240505,21.0178601],[105.8242393,21.0180778],[105.8244059,21.0183243],[105.8248434,21.0191374],[105.8249635,21.0193644],[105.8251864,21.0197917],[105.8253538,21.020136],[105.8256221,21.0206822],[105.8259703,21.0213187],[105.8261446,21.0216987],[105.8262836,21.0219662],[105.8263965,21.0221901],[105.8264891,21.0223854],[105.8265745,21.0226097],[105.82664,21.0227996],[105.8266963,21.0229919],[105.826997,21.0240837],[105.8271758,21.0247231],[105.8273269,21.025275],[105.8273901,21.0254912],[105.8274306,21.025641],[105.8274518,21.0257289],[105.827475,21.0258459],[105.8274948,21.0260306],[105.8274981,21.0260823],[105.8274963,21.0261375],[105.8274764,21.026468],[105.8274552,21.0268195]]},"properties":{"name":"Đường sắt đô thị 2A Hà Nội (Phân đoạn Cát Linh - Hà Đông)","line":"2A","status":"operational"}},{"type":"Feature","geometry":{"type":"LineString","coordinates":[[105.8273419,21.0273248],[105.8274004,21.0268131],[105.8274446,21.0262903],[105.8274543,21.0261558],[105.8274561,21.0260926],[105.8274528,21.0260365],[105.8274286,21.0258698],[105.8274042,21.0257323],[105.8273804,21.0256225],[105.827348,21.0254934],[105.8273016,21.0253342],[105.827285,21.0252807],[105.8271398,21.0247326],[105.8269605,21.0240945],[105.8266591,21.0230012],[105.8266018,21.0228088],[105.8265358,21.0226198],[105.8264516,21.0223992],[105.8263603,21.0222063],[105.826244,21.0219754],[105.8261135,21.0217079],[105.8259357,21.0213345],[105.8255891,21.0206874],[105.8253269,21.0201444],[105.8251832,21.0198501],[105.8249375,21.0193827],[105.8248214,21.0191645],[105.8243544,21.0183201],[105.8242123,21.0181278],[105.8241076,21.0179861],[105.8238919,21.0177636],[105.8236718,21.0175591],[105.8233262,21.017304],[105.8228212,21.01705],[105.8225509,21.0169239],[105.8221205,21.0167545],[105.8217227,21.0165935],[105.8215851,21.016518],[105.8213178,21.0163727],[105.8211111,21.0162319],[105.8209747,21.0161383],[105.8208603,21.0160441],[105.8205579,21.0157493],[105.8201812,21.0153597],[105.8194321,21.0145374],[105.8187349,21.0137879],[105.8181024,21.0130727],[105.8176552,21.0125915],[105.8171956,21.0120306],[105.8165092,21.0111715],[105.8161846,21.0107366],[105.8159727,21.0104812],[105.815893,21.0103848],[105.8157232,21.0101538],[105.815653,21.0100418],[105.8155274,21.009807],[105.8154383,21.0096411],[105.8153852,21.009492],[105.815341,21.0093645],[105.8152948,21.0091942],[105.8152601,21.0090238],[105.8152382,21.0088887],[105.815229,21.0087222],[105.8152243,21.0085926],[105.8152241,21.0084743],[105.8152299,21.0083504],[105.8152492,21.008172],[105.815266,21.0080381],[105.8152889,21.007924],[105.8153241,21.0077736],[105.8153663,21.0076519],[105.8154052,21.0075392],[105.8154569,21.0074084],[105.8154595,21.007403],[105.8155103,21.0072964],[105.8156452,21.007047]]},"properties":{"name":"Đường sắt đô thị 2A Hà Nội (Phân đoạn Cát Linh - Hà Đông)","line":"2A","status":"operational"}},{"type":"Feature","geometry":{"type":"LineString","coordinates":[[105.7738839,20.9477452],[105.7715284,20.9485413],[105.7714996,20.948551],[105.7709375,20.9487357],[105.7634525,20.9511956]]},"properties":{"name":"đường chạy thử tàu","line":"khác","status":"operational"}},{"type":"Feature","geometry":{"type":"LineString","coordinates":[[105.7475734,20.9491633],[105.7477272,20.9492495],[105.7478818,20.9493361]]},"properties":{"name":"Đường sắt đô thị 2A Hà Nội (Phân đoạn Cát Linh - Hà Đông)","line":"2A","status":"operational"}},{"type":"Feature","geometry":{"type":"LineString","coordinates":[[105.7673713,20.9474233],[105.7677741,20.9474529],[105.7679052,20.9474672],[105.7680094,20.9474819],[105.7681038,20.9475038],[105.7681918,20.9475321],[105.7682162,20.9475415],[105.7682906,20.9475701],[105.7683986,20.9476224],[105.7685535,20.9477008],[105.7687682,20.9478094]]},"properties":{"name":"Đường sắt đô thị","line":"khác","status":"operational"}},{"type":"Feature","geometry":{"type":"LineString","coordinates":[[105.7352194,21.0525714],[105.7373631,21.0511001],[105.7377044,21.050873],[105.7378768,21.0507707],[105.7381081,21.0506533],[105.7384532,21.0505017],[105.7388448,21.0503386],[105.740205,21.0497827],[105.7447965,21.0479495],[105.7453693,21.0477152],[105.748125,21.0466596],[105.751711,21.0452602],[105.7533296,21.0446313],[105.7550305,21.0439862],[105.7552604,21.0438985],[105.7561225,21.0435696],[105.7583911,21.0427385],[105.7611992,21.0417152],[105.762681,21.0411927],[105.7637289,21.0408233],[105.7643128,21.0406206],[105.7660988,21.0400253],[105.7682043,21.0393896],[105.7703277,21.0387485],[105.7709951,21.0385483],[105.7714241,21.038429],[105.7717665,21.0383441],[105.7720893,21.0382652],[105.772462,21.0381681],[105.7729857,21.0380271],[105.7733634,21.0379254],[105.7737729,21.0378223],[105.7738986,21.037792],[105.7758811,21.0371873],[105.7768063,21.0369102],[105.7769905,21.0368516],[105.777218,21.0367889],[105.7774499,21.0367403],[105.7776947,21.0366918],[105.7781367,21.0366291],[105.7784726,21.0366008]]},"properties":{"name":"Đường sắt đô thị 3 Hà Nội (phân đoạn Nhổn - Ga Hà Nội)","line":"3","status":"operational"}},{"type":"Feature","geometry":{"type":"LineString","coordinates":[[105.7785302,21.0366473],[105.7781345,21.0366764],[105.777806,21.0367209],[105.777678,21.0367408],[105.7772526,21.0368297],[105.776095,21.0371715],[105.7750982,21.0374734],[105.7739192,21.0378382],[105.7730555,21.0380497],[105.7729948,21.0380658],[105.7724101,21.0382213],[105.7721145,21.0383026],[105.7714905,21.0384681],[105.7711912,21.0385551],[105.768879,21.0392567],[105.7668604,21.039863],[105.7661625,21.0400817],[105.7661561,21.0400837],[105.7643308,21.0406756],[105.7637518,21.0408735],[105.7630947,21.0411104],[105.7627014,21.0412487],[105.761773,21.041575],[105.7572432,21.0432127],[105.7559614,21.0436866],[105.7552804,21.0439453],[105.7539129,21.0444648],[105.7517326,21.0453034],[105.7488181,21.0464462],[105.7465382,21.0473243],[105.7454121,21.047767],[105.7448168,21.0480032],[105.7429118,21.0487515],[105.7405921,21.04969],[105.7402446,21.0498289],[105.7390552,21.0503188],[105.738707,21.0504579],[105.7382725,21.0506445],[105.7379165,21.0508086],[105.7377256,21.0509258],[105.7372594,21.0512499],[105.7355868,21.052373],[105.735244,21.0526112]]},"properties":{"name":"Đường sắt đô thị 3 Hà Nội (phân đoạn Nhổn - Ga Hà Nội)","line":"3","status":"operational"}},{"type":"Feature","geometry":{"type":"LineString","coordinates":[[105.7334364,21.0538817],[105.733307,21.054035],[105.7331999,21.0542231],[105.7329062,21.0550454],[105.732839,21.0552382],[105.7328205,21.0553396],[105.7328162,21.0554559],[105.7328368,21.0555822],[105.7328779,21.0556965],[105.7329353,21.0558067],[105.7330036,21.0558977],[105.7330946,21.0559816],[105.733204,21.0560696],[105.7333026,21.0561201],[105.7334868,21.0561798],[105.7339186,21.056309],[105.7341156,21.0563335],[105.7345524,21.056332]]},"properties":{"name":"Nhánh ra vào Depot Nhổn","line":"3","status":"operational"}},{"type":"Feature","geometry":{"type":"LineString","coordinates":[[105.7345492,21.0563733],[105.7341222,21.0563749],[105.7339301,21.056355],[105.7334791,21.0562217],[105.7332925,21.0561624],[105.7331917,21.0561137],[105.7330784,21.0560266],[105.7329776,21.0559278],[105.7329067,21.0558384],[105.7328457,21.0557316],[105.7327984,21.0556015],[105.732776,21.0555097],[105.7327648,21.0553437],[105.732776,21.0552322],[105.7327984,21.0551381],[105.7330996,21.0542775],[105.733173,21.0541172],[105.7332502,21.0539976],[105.7333597,21.0538629]]},"properties":{"name":"Nhánh ra vào Depot Nhổn","line":"3","status":"operational"}},{"type":"Feature","geometry":{"type":"LineString","coordinates":[[105.7345492,21.0563733],[105.7347798,21.0563731],[105.7352554,21.0563726],[105.7354086,21.0563724],[105.7355245,21.0563785],[105.7356457,21.0563958],[105.7357453,21.0564237],[105.7358492,21.0564672],[105.7359343,21.0565162],[105.7360201,21.0565832],[105.736096,21.0566528],[105.7361611,21.0567336],[105.7362082,21.0568101],[105.7362479,21.0568912],[105.7362836,21.0570072],[105.7362984,21.0570571],[105.7363883,21.0573604],[105.7364318,21.057507],[105.7364657,21.0576346],[105.7364786,21.0577523],[105.7364771,21.0578634],[105.7364583,21.0579672],[105.7364247,21.058069],[105.7363752,21.0581645],[105.7363059,21.0582695],[105.7362168,21.0583611],[105.7361412,21.0584237],[105.7360379,21.0584882],[105.7359328,21.0585353],[105.7358191,21.0585678],[105.7357355,21.0585876],[105.7354047,21.0586659],[105.7353255,21.0586763],[105.7352364,21.0586824],[105.7349962,21.058703],[105.7348542,21.0586923],[105.7347327,21.0586701],[105.734641,21.0586386],[105.7345745,21.0586051],[105.7343548,21.0585025],[105.7342101,21.0584461],[105.7341523,21.0584235]]},"properties":{"name":"Nhánh ra vào Depot Nhổn","line":"3","status":"operational"}},{"type":"Feature","geometry":{"type":"LineString","coordinates":[[105.7345524,21.056332],[105.7347834,21.0563299],[105.7352526,21.0563258],[105.7354009,21.0563244],[105.7355145,21.0563277],[105.7356312,21.0563392],[105.7357392,21.0563642],[105.7358425,21.0564034],[105.7359366,21.0564488],[105.7360242,21.0565043],[105.7360977,21.0565658],[105.7361731,21.0566434],[105.7362286,21.0567191],[105.7362769,21.0568011],[105.7363132,21.0568803],[105.7365128,21.0575874]]},"properties":{"name":"Nhánh ra vào Depot Nhổn","line":"3","status":"operational"}},{"type":"Feature","geometry":{"type":"LineString","coordinates":[[105.7365128,21.0575874],[105.7365295,21.0576723],[105.736545,21.0577768],[105.7365462,21.0578652],[105.7365229,21.0579808],[105.7364899,21.058085],[105.7364324,21.058205],[105.7363745,21.0582897],[105.7363145,21.0583671],[105.7362205,21.0584539],[105.7361265,21.058509],[105.7360321,21.0585547],[105.7359057,21.0585951],[105.7357563,21.0586317],[105.7353684,21.0587266],[105.7353183,21.0587389],[105.7350082,21.0587795],[105.7348942,21.0587841],[105.734808,21.0587834],[105.7347206,21.0587754],[105.7346469,21.0587596],[105.734498,21.0587107],[105.7342236,21.0585882],[105.7341653,21.0585634],[105.73411,21.0585423]]},"properties":{"name":"Nhánh ra vào Depot Nhổn","line":"3","status":"operational"}},{"type":"Feature","geometry":{"type":"LineString","coordinates":[[105.7321474,21.0578763],[105.7341096,21.0584957],[105.7341245,21.0585005]]},"properties":{"name":"Đường sắt đô thị","line":"khác","status":"operational"}},{"type":"Feature","geometry":{"type":"LineString","coordinates":[[105.7321151,21.0579567],[105.734095,21.0585828]]},"properties":{"name":"Đường sắt đô thị","line":"khác","status":"operational"}},{"type":"Feature","geometry":{"type":"LineString","coordinates":[[105.7321625,21.0578358],[105.7341247,21.0584553],[105.7341392,21.0584606]]},"properties":{"name":"Đường sắt đô thị","line":"khác","status":"operational"}},{"type":"Feature","geometry":{"type":"LineString","coordinates":[[105.7321884,21.0577652],[105.7341505,21.0583847],[105.7341641,21.0583902]]},"properties":{"name":"Đường sắt đô thị","line":"khác","status":"operational"}},{"type":"Feature","geometry":{"type":"LineString","coordinates":[[105.7322027,21.057729],[105.7341649,21.0583484],[105.7341777,21.0583537]]},"properties":{"name":"Đường sắt đô thị","line":"khác","status":"operational"}},{"type":"Feature","geometry":{"type":"LineString","coordinates":[[105.7322168,21.0576931],[105.734179,21.0583126],[105.7341911,21.0583176]]},"properties":{"name":"Đường sắt đô thị","line":"khác","status":"operational"}},{"type":"Feature","geometry":{"type":"LineString","coordinates":[[105.7320783,21.058059],[105.7340597,21.0586856]]},"properties":{"name":"Đường sắt đô thị","line":"khác","status":"operational"}},{"type":"Feature","geometry":{"type":"LineString","coordinates":[[105.732103,21.0579912],[105.7340819,21.058617]]},"properties":{"name":"Đường sắt đô thị","line":"khác","status":"operational"}},{"type":"Feature","geometry":{"type":"LineString","coordinates":[[105.7320651,21.0580948],[105.7340453,21.0587209]]},"properties":{"name":"Đường sắt đô thị","line":"khác","status":"operational"}},{"type":"Feature","geometry":{"type":"LineString","coordinates":[[105.7320907,21.0580241],[105.7340711,21.0586506]]},"properties":{"name":"Đường sắt đô thị","line":"khác","status":"operational"}},{"type":"Feature","geometry":{"type":"LineString","coordinates":[[105.7351979,21.0564683],[105.735455,21.0564676],[105.7355563,21.0564774],[105.7356626,21.0565016],[105.7357778,21.0565476],[105.7358899,21.0566074],[105.7359844,21.0566698],[105.7360544,21.0567346],[105.7361324,21.0568276],[105.7361903,21.0569189],[105.7362283,21.0570163],[105.7362453,21.0570721],[105.7363379,21.0573756],[105.7363587,21.0574696],[105.7363734,21.0575891],[105.7363801,21.0577015],[105.7363831,21.0578174],[105.7363617,21.0579406],[105.7363231,21.0580454],[105.7362704,21.0581457],[105.736213,21.0582306],[105.7361536,21.0583021],[105.7360593,21.0583846],[105.7359757,21.0584464],[105.7358871,21.0584947],[105.7357867,21.058536],[105.7356842,21.0585605],[105.7355744,21.0585748],[105.7354571,21.0585749],[105.7353644,21.0585684],[105.7352072,21.0585185],[105.7351076,21.0584778],[105.735015,21.0584396],[105.7349107,21.0583875],[105.7348137,21.0583271],[105.7347487,21.0582854],[105.7345859,21.0581717],[105.7345245,21.058122],[105.7344581,21.0580545],[105.7343935,21.0579792],[105.7343522,21.0579104],[105.7342905,21.0577997],[105.7341662,21.0575931],[105.734119,21.0574903],[105.7340972,21.0574248],[105.7340853,21.0573756]]},"properties":{"name":"Đường sắt đô thị","line":"khác","status":"operational"}},{"type":"Feature","geometry":{"type":"LineString","coordinates":[[105.7341518,21.0573617],[105.734164,21.0574135],[105.7341886,21.0574949],[105.7342146,21.0575581],[105.7342452,21.0576283],[105.7342966,21.0577145],[105.7343745,21.0578192],[105.7344295,21.0578921],[105.7344892,21.0579574],[105.7345668,21.0580358],[105.7346469,21.0580981],[105.7351503,21.0584392]]},"properties":{"name":"Đường sắt đô thị","line":"khác","status":"operational"}},{"type":"Feature","geometry":{"type":"LineString","coordinates":[[105.7341866,21.0582584],[105.7343648,21.0583155],[105.734505,21.0583615],[105.7346189,21.0583911],[105.7349879,21.058474]]},"properties":{"name":"Đường sắt đô thị","line":"khác","status":"operational"}},{"type":"Feature","geometry":{"type":"LineString","coordinates":[[105.7353644,21.0585684],[105.7352443,21.0585436],[105.7351478,21.0585184],[105.7349879,21.058474],[105.7348194,21.0584105],[105.7346807,21.0583616],[105.7345699,21.0583163],[105.7344023,21.0582419],[105.7342654,21.0581931],[105.7336376,21.0579935],[105.7335426,21.0579632]]},"properties":{"name":"Đường sắt đô thị","line":"khác","status":"operational"}},{"type":"Feature","geometry":{"type":"LineString","coordinates":[[105.7351478,21.0585184],[105.7350351,21.0584706],[105.7348859,21.0584025],[105.7346579,21.058289],[105.7345703,21.0582392],[105.7340792,21.0579185],[105.7340062,21.0578826],[105.7339418,21.0578565],[105.7336782,21.0577721],[105.733616,21.0577522]]},"properties":{"name":"Đường sắt đô thị","line":"khác","status":"operational"}},{"type":"Feature","geometry":{"type":"LineString","coordinates":[[105.7335757,21.0578752],[105.7323077,21.0574695]]},"properties":{"name":"Đường sắt đô thị","line":"khác","status":"operational"}},{"type":"Feature","geometry":{"type":"LineString","coordinates":[[105.7323239,21.0574134],[105.7335954,21.0578167]]},"properties":{"name":"Đường sắt đô thị","line":"khác","status":"operational"}},{"type":"Feature","geometry":{"type":"LineString","coordinates":[[105.7349107,21.0583875],[105.7346308,21.0582386],[105.7345408,21.0581865],[105.7343985,21.0580884],[105.7340072,21.0578236],[105.7339352,21.0577795],[105.733855,21.0577411],[105.7337714,21.0577072],[105.7336938,21.0576823],[105.7336484,21.0576677]]},"properties":{"name":"Đường sắt đô thị","line":"khác","status":"operational"}},{"type":"Feature","geometry":{"type":"LineString","coordinates":[[105.7337474,21.0573799],[105.7324866,21.0569775]]},"properties":{"name":"Đường sắt đô thị","line":"khác","status":"operational"}},{"type":"Feature","geometry":{"type":"LineString","coordinates":[[105.8089124,21.0295912],[105.8092571,21.0296359],[105.8093984,21.0296558]]},"properties":{"name":"Tuyến đường sắt đô thị số 3 (Đoạn Nhổn - Ga Hà Nội)","line":"số 3","status":"under_construction"}},{"type":"Feature","geometry":{"type":"LineString","coordinates":[[105.8089064,21.0296387],[105.8092503,21.0296848],[105.8093902,21.0297077]]},"properties":{"name":"Tuyến đường sắt đô thị số 3 (Đoạn Nhổn - Ga Hà Nội)","line":"số 3","status":"under_construction"}},{"type":"Feature","geometry":{"type":"LineString","coordinates":[[105.8093984,21.0296558],[105.8117405,21.0300956],[105.8123161,21.0302004],[105.8128651,21.0302798],[105.8132829,21.030327],[105.8139744,21.0303959],[105.8142027,21.0304183],[105.8146782,21.030466],[105.8150602,21.030494],[105.815557,21.0305162],[105.816328,21.0305075],[105.816774,21.0305633],[105.8185848,21.0308164],[105.8204891,21.0310905],[105.821172,21.0311715],[105.8215903,21.0312178],[105.8219748,21.0312299],[105.8223333,21.0312117],[105.82274,21.0311703],[105.8232478,21.0310622],[105.823788,21.0309198],[105.8244789,21.0306675],[105.8257364,21.0301708],[105.8268436,21.02967],[105.8270923,21.0295764],[105.8272679,21.0295288],[105.8275141,21.0294739],[105.8276723,21.0294451],[105.828786,21.0292272],[105.8317372,21.0286884],[105.8318009,21.0286736],[105.8318575,21.0286516],[105.8339862,21.0278185],[105.834628,21.027556],[105.8357058,21.0271531],[105.8357866,21.0271188],[105.8358849,21.0270774],[105.8360032,21.0270173],[105.8361575,21.0269189],[105.8366113,21.0266931],[105.8379767,21.0259788],[105.8383173,21.0258028],[105.8385145,21.0256781],[105.8387246,21.0255176],[105.8389648,21.0253411],[105.8392678,21.0251392],[105.8400188,21.024678],[105.8404832,21.0244324],[105.8408962,21.0242629],[105.8414316,21.0241038],[105.8422892,21.0238621],[105.8451874,21.0230093]]},"properties":{"name":"Tuyến đường sắt đô thị số 3 (Đoạn Nhổn - Ga Hà Nội)","line":"số 3","status":"under_construction"}},{"type":"Feature","geometry":{"type":"LineString","coordinates":[[105.8452253,21.0231089],[105.8437168,21.0235453],[105.8423137,21.0239512],[105.8414377,21.0242008],[105.8409079,21.0243597],[105.8405469,21.0245161],[105.8401133,21.0247334],[105.8397561,21.0249463],[105.8393253,21.0252236],[105.8390398,21.0254076],[105.8385943,21.0257222],[105.838343,21.0258784],[105.838002,21.0260595],[105.836649,21.0267483],[105.8362037,21.0269892],[105.8359629,21.0271124],[105.835846,21.0271721],[105.8357362,21.0272152],[105.8343418,21.0277407],[105.8339033,21.0279384],[105.8318994,21.0287131],[105.8318007,21.0287467],[105.8316948,21.0287721],[105.8292839,21.0292265],[105.828803,21.0293071],[105.8277182,21.0295238],[105.827517,21.0295595],[105.8272866,21.0296072],[105.8271323,21.0296572],[105.8268309,21.0297859],[105.8257646,21.0302575],[105.8245188,21.0307632],[105.8238494,21.0310108],[105.8233078,21.0311586],[105.8227614,21.0312673],[105.8223884,21.0313217],[105.8221293,21.0313432],[105.821867,21.0313482],[105.821533,21.0313447],[105.8210583,21.0313103],[105.8196704,21.0311002],[105.8181866,21.0308847],[105.8170601,21.0307248],[105.8162733,21.0306353],[105.8159543,21.0306163],[105.81556,21.0306062],[105.8148491,21.0305815],[105.8141941,21.0305264],[105.8133325,21.0304375],[105.8130089,21.0303777],[105.8127963,21.0303429],[105.8124759,21.0302823],[105.8120662,21.0302062],[105.811762,21.0301519],[105.8093902,21.0297077]]},"properties":{"name":"Tuyến đường sắt đô thị số 3 (Đoạn Nhổn - Ga Hà Nội)","line":"số 3","status":"under_construction"}},{"type":"Feature","geometry":{"type":"LineString","coordinates":[[105.7481062,20.9495036],[105.7484438,20.9497634]]},"properties":{"name":"Đường sắt đô thị 2A Hà Nội (Phân đoạn Cát Linh - Hà Đông)","line":"2A","status":"operational"}},{"type":"Feature","geometry":{"type":"LineString","coordinates":[[105.7484068,20.949796],[105.7480755,20.9495408]]},"properties":{"name":"Đường sắt đô thị 2A Hà Nội (Phân đoạn Cát Linh - Hà Đông)","line":"2A","status":"operational"}},{"type":"Feature","geometry":{"type":"LineString","coordinates":[[105.7333597,21.0538629],[105.7335239,21.0537328],[105.7336322,21.0536608],[105.7352194,21.0525714]]},"properties":{"name":"Đường sắt đô thị 3 Hà Nội (phân đoạn Nhổn - Ga Hà Nội)","line":"3","status":"operational"}},{"type":"Feature","geometry":{"type":"LineString","coordinates":[[105.735244,21.0526112],[105.7342142,21.0533265],[105.7336031,21.0537528],[105.7334364,21.0538817]]},"properties":{"name":"Đường sắt đô thị 3 Hà Nội (phân đoạn Nhổn - Ga Hà Nội)","line":"3","status":"operational"}},{"type":"Feature","geometry":{"type":"LineString","coordinates":[[105.8033539,21.0292035],[105.8039374,21.0289262],[105.8041228,21.0288414],[105.8042784,21.0287833],[105.8044352,21.0287427],[105.8045833,21.0287136],[105.8047488,21.0286892],[105.8049392,21.0286741],[105.8051159,21.0286846],[105.8053623,21.0287264],[105.8055116,21.0287636],[105.8056734,21.0288228],[105.8063392,21.0290911],[105.8065632,21.0291759],[105.8067997,21.0292561],[105.8069378,21.0292956],[105.8071805,21.029363],[105.8073584,21.0293955],[105.8080168,21.0294814],[105.8089124,21.0295912]]},"properties":{"name":"Đường sắt đô thị 3 Hà Nội (phân đoạn Nhổn - Ga Hà Nội)","line":"3","status":"operational"}},{"type":"Feature","geometry":{"type":"LineString","coordinates":[[105.8089064,21.0296387],[105.808182,21.0295437],[105.8073857,21.0294325],[105.8071701,21.0293931],[105.8070044,21.0293526],[105.8068234,21.0293081],[105.8066783,21.0292616],[105.806259,21.0290947],[105.8057184,21.0288692],[105.8055342,21.0288076],[105.805427,21.0287772],[105.8053425,21.028757],[105.8051485,21.0287206],[105.8050478,21.0287105],[105.8049362,21.0287054],[105.8047694,21.0287115],[105.8045408,21.0287469],[105.8043739,21.0287873],[105.8042883,21.0288126],[105.8041421,21.0288713],[105.8033744,21.0292367]]},"properties":{"name":"Đường sắt đô thị 3 Hà Nội (phân đoạn Nhổn - Ga Hà Nội)","line":"3","status":"operational"}},{"type":"Feature","geometry":{"type":"LineString","coordinates":[[105.7920511,20.9835561],[105.7917721,20.9833943],[105.7908142,20.982645],[105.7906549,20.9824621]]},"properties":{"name":"Đường sắt đô thị 2A Hà Nội (Phân đoạn Cát Linh - Hà Đông)","line":"2A","status":"operational"}},{"type":"Feature","geometry":{"type":"LineString","coordinates":[[105.7900908,20.9819493],[105.7904024,20.9822529]]},"properties":{"name":"Đường sắt đô thị 2A Hà Nội (Phân đoạn Cát Linh - Hà Đông)","line":"2A","status":"operational"}},{"type":"Feature","geometry":{"type":"LineString","coordinates":[[105.7921847,20.9836579],[105.7924603,20.9838185]]},"properties":{"name":"Đường sắt đô thị 2A Hà Nội (Phân đoạn Cát Linh - Hà Đông)","line":"2A","status":"operational"}},{"type":"Feature","geometry":{"type":"LineString","coordinates":[[105.8156452,21.007047],[105.8160202,21.0064568],[105.8163338,21.0059651],[105.8166331,21.0054816],[105.8167279,21.0053277],[105.8168514,21.0050873],[105.8169311,21.0048996],[105.8170768,21.0045101],[105.8174704,21.0034313],[105.8175011,21.0033524],[105.81753,21.0032472],[105.8175505,21.0031628],[105.8175641,21.0030937],[105.817576,21.0029681],[105.8175854,21.002851],[105.8175948,21.0027077],[105.8175922,21.002595],[105.8175807,21.0024235],[105.8175688,21.0023175],[105.8175163,21.002076],[105.8174814,21.0019496],[105.8174395,21.0017982],[105.8173802,21.0016372],[105.8173056,21.0014794],[105.8172213,21.0013355],[105.8171429,21.0012238],[105.8169629,21.0009962],[105.8168887,21.0009073],[105.8168081,21.0008218],[105.8165628,21.0006062],[105.8163291,21.0004348],[105.8154694,20.9998462],[105.8152411,20.9996903],[105.8145715,20.999251],[105.8137903,20.9987451],[105.81223,20.9976983],[105.8118533,20.9974586],[105.811245,20.9970475],[105.8109416,20.9968462],[105.8107786,20.996738],[105.8102956,20.9964259],[105.8102515,20.9963974],[105.8099163,20.9961671],[105.8096127,20.9959608],[105.808842,20.9954659],[105.808575,20.9952811],[105.8080841,20.9949413],[105.8073771,20.9944271],[105.8044088,20.9923086],[105.8036475,20.9917827]]},"properties":{"name":"Đường sắt đô thị 2A Hà Nội (Phân đoạn Cát Linh - Hà Đông)","line":"2A","status":"operational"}},{"type":"Feature","geometry":{"type":"LineString","coordinates":[[105.8036685,20.9917578],[105.8044331,20.9922879],[105.8074122,20.9943983],[105.8080967,20.9949093],[105.8088689,20.9954334],[105.8096642,20.99595],[105.8106378,20.996604],[105.8112523,20.9970091],[105.8118793,20.997429],[105.812249,20.9976589],[105.8146015,20.9992377],[105.8152686,20.9996753],[105.8159383,21.000123],[105.8163457,21.0003928],[105.8166133,21.0005912],[105.8168341,21.0007953],[105.8169249,21.0008904],[105.8170064,21.0009898],[105.8171777,21.0012023],[105.8172508,21.001318],[105.8173417,21.0014598],[105.817411,21.0016166],[105.8174782,21.0017955],[105.8175156,21.001939],[105.8175498,21.0020642],[105.8176022,21.0023024],[105.8176169,21.0024172],[105.8176289,21.0026237],[105.817633,21.002692],[105.8176202,21.0028798],[105.8176075,21.0029769],[105.8175921,21.0030985],[105.817582,21.0031716],[105.8175632,21.0032642],[105.8175359,21.0033654],[105.8175037,21.0034408],[105.8172219,21.0042467],[105.8171186,21.0045254],[105.8169653,21.0049109],[105.8168764,21.0051249],[105.816763,21.0053442],[105.8164757,21.0058141],[105.8160567,21.0064719],[105.8156769,21.007059]]},"properties":{"name":"Đường sắt đô thị 2A Hà Nội (Phân đoạn Cát Linh - Hà Đông)","line":"2A","status":"operational"}},{"type":"Feature","geometry":{"type":"LineString","coordinates":[[105.8028234,20.9911559],[105.8036685,20.9917578]]},"properties":{"name":"Đường sắt đô thị 2A Hà Nội (Phân đoạn Cát Linh - Hà Đông)","line":"2A","status":"operational"}},{"type":"Feature","geometry":{"type":"LineString","coordinates":[[105.8036475,20.9917827],[105.8028039,20.9911836]]},"properties":{"name":"Đường sắt đô thị 2A Hà Nội (Phân đoạn Cát Linh - Hà Đông)","line":"2A","status":"operational"}},{"type":"Feature","geometry":{"type":"LineString","coordinates":[[105.7638429,20.9482958],[105.7640626,20.9481945],[105.76429,20.948084],[105.7643511,20.9480543],[105.7644977,20.9479905],[105.7646411,20.9479409],[105.7652095,20.9477547],[105.765242,20.9477441]]},"properties":{"name":"Đường sắt đô thị","line":"khác","status":"operational"}},{"type":"Feature","geometry":{"type":"LineString","coordinates":[[105.765242,20.9477441],[105.7658125,20.9475572]]},"properties":{"name":"Đường sắt đô thị","line":"khác","status":"operational"}},{"type":"Feature","geometry":{"type":"LineString","coordinates":[[105.7668589,20.9473948],[105.7667588,20.9474201],[105.7666797,20.9474422],[105.7663457,20.9475496]]},"properties":{"name":"Đường sắt đô thị","line":"khác","status":"operational"}},{"type":"Feature","geometry":{"type":"LineString","coordinates":[[105.7681817,20.9472103],[105.7680605,20.9472216],[105.7679764,20.9472329],[105.7671427,20.9473888],[105.7668606,20.9474416]]},"properties":{"name":"Đường sắt đô thị","line":"khác","status":"operational"}},{"type":"Feature","geometry":{"type":"LineString","coordinates":[[105.7691282,20.9482516],[105.7696294,20.9485957]]},"properties":{"name":"Đường sắt đô thị","line":"khác","status":"operational"}},{"type":"Feature","geometry":{"type":"LineString","coordinates":[[105.7688764,20.9480794],[105.7691282,20.9482516]]},"properties":{"name":"Đường sắt đô thị","line":"khác","status":"operational"}},{"type":"Feature","geometry":{"type":"LineString","coordinates":[[105.7685535,20.9477008],[105.7686594,20.9477683],[105.7687494,20.9478302],[105.7694143,20.9482957],[105.7695685,20.9484006],[105.7697052,20.9484774],[105.7698573,20.9485444],[105.7700021,20.9486005],[105.7701342,20.9486395],[105.7702742,20.9486681],[105.7703922,20.9486846],[105.7705106,20.9486942],[105.7706646,20.9487004],[105.7707926,20.948696],[105.770903,20.9486846],[105.7709573,20.948679],[105.7711373,20.9486389],[105.7714996,20.948551]]},"properties":{"name":"Đường sắt đô thị","line":"khác","status":"operational"}},{"type":"Feature","geometry":{"type":"LineString","coordinates":[[105.7691099,20.9473171],[105.7696787,20.9473505]]},"properties":{"name":"Đường sắt đô thị","line":"khác","status":"operational"}},{"type":"Feature","geometry":{"type":"LineString","coordinates":[[105.769113,20.9472708],[105.769677,20.9473049]]},"properties":{"name":"Đường sắt đô thị","line":"khác","status":"operational"}},{"type":"Feature","geometry":{"type":"LineString","coordinates":[[105.7691194,20.9472242],[105.7696828,20.9472589]]},"properties":{"name":"Đường sắt đô thị","line":"khác","status":"operational"}},{"type":"Feature","geometry":{"type":"LineString","coordinates":[[105.7677028,20.9471929],[105.7678613,20.9471526],[105.7679653,20.9471211],[105.7679714,20.9471193],[105.7680583,20.9470865],[105.7681622,20.9470417],[105.7683729,20.946942]]},"properties":{"name":"Đường sắt đô thị","line":"khác","status":"operational"}},{"type":"Feature","geometry":{"type":"LineString","coordinates":[[105.7710955,20.9474108],[105.7701782,20.9477095]]},"properties":{"name":"Đường sắt đô thị","line":"khác","status":"operational"}},{"type":"Feature","geometry":{"type":"LineString","coordinates":[[105.7710721,20.9473475],[105.7701549,20.9476462]]},"properties":{"name":"Đường sắt đô thị","line":"khác","status":"operational"}},{"type":"Feature","geometry":{"type":"LineString","coordinates":[[105.771041,20.9472631],[105.7701214,20.9475626]]},"properties":{"name":"Đường sắt đô thị","line":"khác","status":"operational"}},{"type":"Feature","geometry":{"type":"LineString","coordinates":[[105.7710133,20.9471878],[105.7700949,20.9474868]]},"properties":{"name":"Đường sắt đô thị","line":"khác","status":"operational"}},{"type":"Feature","geometry":{"type":"LineString","coordinates":[[105.7709942,20.9471361],[105.7700785,20.9474343]]},"properties":{"name":"Đường sắt đô thị","line":"khác","status":"operational"}},{"type":"Feature","geometry":{"type":"LineString","coordinates":[[105.7699248,20.9470401],[105.769892,20.9470508],[105.7698025,20.947077],[105.7697654,20.9470879],[105.7696759,20.9471121],[105.7695545,20.947132],[105.7694461,20.9471403],[105.7693431,20.9471458],[105.7692342,20.9471436],[105.7690968,20.9471339],[105.7689318,20.9471182],[105.7687508,20.9471054],[105.7686571,20.9471017],[105.768512,20.9471068],[105.7683925,20.9471167],[105.7682299,20.9471377]]},"properties":{"name":"Đường sắt đô thị","line":"khác","status":"operational"}},{"type":"Feature","geometry":{"type":"LineString","coordinates":[[105.7687508,20.9471054],[105.7691625,20.9471039],[105.7693535,20.9471021],[105.769486,20.9470962],[105.7696172,20.947079],[105.7697596,20.9470431],[105.769796,20.947033],[105.7698772,20.9470105],[105.7699058,20.9470012]]},"properties":{"name":"Đường sắt đô thị","line":"khác","status":"operational"}},{"type":"Feature","geometry":{"type":"LineString","coordinates":[[105.7698929,20.9469592],[105.769862,20.9469693],[105.7697815,20.9469943],[105.7697059,20.9470178],[105.7695994,20.9470425],[105.7694755,20.9470584],[105.7693698,20.9470644],[105.7689769,20.9470674],[105.7688266,20.9470738],[105.7686845,20.9470879],[105.768512,20.9471068]]},"properties":{"name":"Đường sắt đô thị","line":"khác","status":"operational"}},{"type":"Feature","geometry":{"type":"LineString","coordinates":[[105.7686074,20.9470697],[105.7687643,20.9470504],[105.7688631,20.9470428],[105.7690772,20.947036],[105.7693608,20.947025],[105.7694792,20.9470179],[105.7695931,20.9470006],[105.7696902,20.9469765],[105.7697769,20.9469495],[105.7698467,20.9469277],[105.7698758,20.9469182]]},"properties":{"name":"Đường sắt đô thị","line":"khác","status":"operational"}},{"type":"Feature","geometry":{"type":"LineString","coordinates":[[105.7690772,20.947036],[105.7693334,20.9470033],[105.7695525,20.9469634],[105.7696887,20.946927],[105.7697639,20.946904],[105.7698304,20.9468836],[105.7698584,20.9468745]]},"properties":{"name":"Đường sắt đô thị","line":"khác","status":"operational"}},{"type":"Feature","geometry":{"type":"LineString","coordinates":[[105.7698404,20.9468174],[105.7715178,20.9462713]]},"properties":{"name":"Đường sắt đô thị","line":"khác","status":"operational"}},{"type":"Feature","geometry":{"type":"LineString","coordinates":[[105.7692502,20.9469531],[105.7693724,20.9469212],[105.7694663,20.946894],[105.7697452,20.9468066],[105.7697961,20.9467906],[105.769824,20.9467815]]},"properties":{"name":"Đường sắt đô thị","line":"khác","status":"operational"}},{"type":"Feature","geometry":{"type":"LineString","coordinates":[[105.7698084,20.9467343],[105.771487,20.9461878]]},"properties":{"name":"Đường sắt đô thị","line":"khác","status":"operational"}},{"type":"Feature","geometry":{"type":"LineString","coordinates":[[105.769784,20.9466711],[105.7697555,20.9466804],[105.7697101,20.9466954],[105.7689718,20.9469397],[105.7688657,20.9469716],[105.7687504,20.9469997]]},"properties":{"name":"Đường sắt đô thị","line":"khác","status":"operational"}},{"type":"Feature","geometry":{"type":"LineString","coordinates":[[105.7340853,21.0573756],[105.7340232,21.0571195]]},"properties":{"name":"Đường sắt đô thị","line":"khác","status":"operational"}},{"type":"Feature","geometry":{"type":"LineString","coordinates":[[105.7341518,21.0573617],[105.7340917,21.0571056]]},"properties":{"name":"Đường sắt đô thị","line":"khác","status":"operational"}},{"type":"Feature","geometry":{"type":"LineString","coordinates":[[105.7347487,21.0582854],[105.7346325,21.0581782],[105.7345424,21.0580871],[105.7344999,21.0580419],[105.7344567,21.0579839],[105.734424,21.0579342],[105.7342966,21.0577145]]},"properties":{"name":"Đường sắt đô thị","line":"khác","status":"operational"}},{"type":"Feature","geometry":{"type":"LineString","coordinates":[[105.7345408,21.0581865],[105.7344427,21.0581032],[105.7343941,21.058054],[105.7343479,21.0579973],[105.7343113,21.0579469],[105.7342448,21.057819],[105.7341953,21.0577358],[105.7341339,21.0576553],[105.7340851,21.057597],[105.7340248,21.057535],[105.7339485,21.0574768],[105.7338758,21.0574323],[105.7338008,21.0573969],[105.7337667,21.057386],[105.7337474,21.0573799]]},"properties":{"name":"Đường sắt đô thị","line":"khác","status":"operational"}},{"type":"Feature","geometry":{"type":"LineString","coordinates":[[105.7335426,21.0579632],[105.7330555,21.0578083]]},"properties":{"name":"Đường sắt đô thị","line":"khác","status":"operational"}},{"type":"Feature","geometry":{"type":"LineString","coordinates":[[105.7345703,21.0582392],[105.7344737,21.0581865],[105.7344034,21.0581522],[105.7342901,21.058108],[105.7341983,21.0580744],[105.7336559,21.0579009],[105.7335757,21.0578752]]},"properties":{"name":"Đường sắt đô thị","line":"khác","status":"operational"}},{"type":"Feature","geometry":{"type":"LineString","coordinates":[[105.7335954,21.0578167],[105.7336666,21.0578393],[105.7338566,21.0578996],[105.7339494,21.0579333],[105.734034,21.057976],[105.7344034,21.0581522]]},"properties":{"name":"Đường sắt đô thị","line":"khác","status":"operational"}},{"type":"Feature","geometry":{"type":"LineString","coordinates":[[105.733616,21.0577522],[105.7323416,21.0573441]]},"properties":{"name":"Đường sắt đô thị","line":"khác","status":"operational"}},{"type":"Feature","geometry":{"type":"LineString","coordinates":[[105.7336484,21.0576677],[105.7323817,21.0572614]]},"properties":{"name":"Đường sắt đô thị","line":"khác","status":"operational"}},{"type":"Feature","geometry":{"type":"LineString","coordinates":[[105.7347798,21.0563731],[105.735008,21.0563502],[105.7352526,21.0563258]]},"properties":{"name":"Đường sắt đô thị","line":"khác","status":"operational"}},{"type":"Feature","geometry":{"type":"LineString","coordinates":[[105.7352554,21.0563726],[105.735008,21.0563502],[105.7347834,21.0563299]]},"properties":{"name":"Đường sắt đô thị","line":"khác","status":"operational"}},{"type":"Feature","geometry":{"type":"LineString","coordinates":[[105.7363379,21.0573756],[105.7363186,21.0572199],[105.7362984,21.0570571]]},"properties":{"name":"Đường sắt đô thị","line":"khác","status":"operational"}},{"type":"Feature","geometry":{"type":"LineString","coordinates":[[105.7363883,21.0573604],[105.7363186,21.0572199],[105.7362453,21.0570721]]},"properties":{"name":"Đường sắt đô thị","line":"khác","status":"operational"}},{"type":"Feature","geometry":{"type":"LineString","coordinates":[[105.7353255,21.0586763],[105.7355675,21.0586512],[105.7357563,21.0586317]]},"properties":{"name":"Đường sắt đô thị","line":"khác","status":"operational"}},{"type":"Feature","geometry":{"type":"LineString","coordinates":[[105.7353684,21.0587266],[105.7355675,21.0586512],[105.7357355,21.0585876]]},"properties":{"name":"Đường sắt đô thị","line":"khác","status":"operational"}},{"type":"Feature","geometry":{"type":"LineString","coordinates":[[105.7346059,21.0585601],[105.7344719,21.0584813],[105.7343041,21.0583711],[105.7342355,21.0583363],[105.7341911,21.0583176]]},"properties":{"name":"Đường sắt đô thị","line":"khác","status":"operational"}},{"type":"Feature","geometry":{"type":"LineString","coordinates":[[105.7352364,21.0586824],[105.7351099,21.0586765],[105.7350242,21.0586691],[105.7349021,21.0586501],[105.7347914,21.0586265],[105.7346915,21.058597],[105.7346059,21.0585601],[105.7343122,21.0584102],[105.7342206,21.0583713],[105.7341777,21.0583537]]},"properties":{"name":"Đường sắt đô thị","line":"khác","status":"operational"}},{"type":"Feature","geometry":{"type":"LineString","coordinates":[[105.7345745,21.0586051],[105.7343915,21.0584988],[105.7342965,21.0584503],[105.7342127,21.0584097],[105.7341641,21.0583902]]},"properties":{"name":"Đường sắt đô thị","line":"khác","status":"operational"}},{"type":"Feature","geometry":{"type":"LineString","coordinates":[[105.7321765,21.0577987],[105.7341387,21.0584181],[105.7341523,21.0584235]]},"properties":{"name":"Đường sắt đô thị","line":"khác","status":"operational"}},{"type":"Feature","geometry":{"type":"LineString","coordinates":[[105.7345408,21.05864],[105.7343924,21.0585761],[105.7342615,21.0585073],[105.7341877,21.0584783],[105.7341392,21.0584606]]},"properties":{"name":"Đường sắt đô thị","line":"khác","status":"operational"}},{"type":"Feature","geometry":{"type":"LineString","coordinates":[[105.7341245,21.0585005],[105.7341746,21.0585164],[105.7345408,21.05864],[105.7346568,21.0586761],[105.7347393,21.058691],[105.7348515,21.0587039],[105.7349962,21.058703]]},"properties":{"name":"Đường sắt đô thị","line":"khác","status":"operational"}},{"type":"Feature","geometry":{"type":"LineString","coordinates":[[105.7321306,21.0579155],[105.73411,21.0585423]]},"properties":{"name":"Đường sắt đô thị","line":"khác","status":"operational"}},{"type":"Feature","geometry":{"type":"LineString","coordinates":[[105.734498,21.0587107],[105.7341439,21.0585986],[105.734095,21.0585828]]},"properties":{"name":"Đường sắt đô thị","line":"khác","status":"operational"}},{"type":"Feature","geometry":{"type":"LineString","coordinates":[[105.7350082,21.0587795],[105.7348074,21.0588093],[105.7347174,21.0588174],[105.7346303,21.058812],[105.7345379,21.0587985],[105.7344708,21.0587814],[105.7342067,21.0586623],[105.7341316,21.0586331],[105.7340819,21.058617]]},"properties":{"name":"Đường sắt đô thị","line":"khác","status":"operational"}},{"type":"Feature","geometry":{"type":"LineString","coordinates":[[105.7344708,21.0587814],[105.7341248,21.0586688],[105.7340711,21.0586506]]},"properties":{"name":"Đường sắt đô thị","line":"khác","status":"operational"}},{"type":"Feature","geometry":{"type":"LineString","coordinates":[[105.7340597,21.0586856],[105.7341055,21.0587007],[105.7344455,21.0588225],[105.7345241,21.0588438],[105.7346204,21.058858],[105.7347084,21.0588617],[105.7348904,21.0588465],[105.7351353,21.0587949],[105.7353183,21.0587389]]},"properties":{"name":"Đường sắt đô thị","line":"khác","status":"operational"}},{"type":"Feature","geometry":{"type":"LineString","coordinates":[[105.7344455,21.0588225],[105.7341907,21.0587649],[105.7340937,21.0587364],[105.7340453,21.0587209]]},"properties":{"name":"Đường sắt đô thị","line":"khác","status":"operational"}},{"type":"Feature","geometry":{"type":"LineString","coordinates":[[105.8271458,21.0290821],[105.8272207,21.0281565],[105.8272532,21.027805],[105.8273356,21.027363]]},"properties":{"name":"Đường sắt đô thị 2A Hà Nội (Phân đoạn Cát Linh - Hà Đông)","line":"2A","status":"operational"}},{"type":"Feature","geometry":{"type":"LineString","coordinates":[[105.8274552,21.0268195],[105.8274139,21.0273327],[105.8273902,21.0278227],[105.8273611,21.0281636],[105.8272815,21.0290934]]},"properties":{"name":"Đường sắt đô thị 2A Hà Nội (Phân đoạn Cát Linh - Hà Đông)","line":"2A","status":"operational"}},{"type":"Feature","geometry":{"type":"LineString","coordinates":[[105.8273356,21.027363],[105.8273419,21.0273248]]},"properties":{"name":"Đường sắt đô thị 2A Hà Nội (Phân đoạn Cát Linh - Hà Đông)","line":"2A","status":"operational"}},{"type":"Feature","geometry":{"type":"LineString","coordinates":[[105.8021453,21.0298267],[105.8023526,21.029706],[105.8025617,21.0295804]]},"properties":{"name":"Đường sắt đô thị 3 Hà Nội (phân đoạn Nhổn - Ga Hà Nội)","line":"3","status":"operational"}},{"type":"Feature","geometry":{"type":"LineString","coordinates":[[105.8025639,21.0296296],[105.8023526,21.029706],[105.8021154,21.0297921]]},"properties":{"name":"Đường sắt đô thị 3 Hà Nội (phân đoạn Nhổn - Ga Hà Nội)","line":"3","status":"operational"}},{"type":"Feature","geometry":{"type":"LineString","coordinates":[[105.8033744,21.0292367],[105.8031753,21.0293333],[105.8028269,21.0295023],[105.8025639,21.0296296],[105.8021453,21.0298267],[105.8015343,21.0301403],[105.8012689,21.0303053],[105.8011095,21.0304075],[105.8009819,21.0304999],[105.8006723,21.0307574],[105.7997577,21.0316403],[105.7985449,21.0328033],[105.7978514,21.033486],[105.7977031,21.0336349],[105.7975898,21.0337485],[105.7974808,21.033841],[105.7973445,21.0339338],[105.7971766,21.0340318],[105.7971097,21.0340666],[105.797011,21.0341112],[105.7969292,21.0341423],[105.7968013,21.0341824],[105.7964275,21.0342985],[105.7951932,21.03467],[105.7943815,21.0349419],[105.7937325,21.0351595],[105.7929532,21.0354213],[105.7916638,21.0358473],[105.7906787,21.0361647],[105.7905052,21.0362154],[105.7902941,21.0362795],[105.7901464,21.0363178],[105.7900216,21.0363423],[105.7898393,21.036373],[105.7894945,21.036403],[105.7888588,21.0364415],[105.7882638,21.0364774],[105.7873187,21.0365218],[105.7860378,21.036571],[105.785568,21.0365908],[105.7835532,21.0366529],[105.7826932,21.0366812],[105.7817416,21.0367064]]},"properties":{"name":"Đường sắt đô thị 3 Hà Nội (phân đoạn Nhổn - Ga Hà Nội)","line":"3","status":"operational"}},{"type":"Feature","geometry":{"type":"LineString","coordinates":[[105.7817372,21.036672],[105.7826928,21.0366441],[105.7835605,21.0366192],[105.7850989,21.0365723],[105.7855664,21.036558],[105.786035,21.0365379],[105.7875766,21.0364743],[105.7882439,21.0364429],[105.7888496,21.0364064],[105.7893501,21.036369],[105.789498,21.0363605],[105.789827,21.0363323],[105.7900131,21.0362981],[105.7901149,21.0362789],[105.7902525,21.0362428],[105.7904087,21.0362007],[105.7905617,21.0361556],[105.790665,21.0361209],[105.791441,21.0358836],[105.7918143,21.0357543],[105.7929764,21.0353704],[105.7934643,21.0352044],[105.793949,21.0350405],[105.7943621,21.0349016],[105.7951762,21.0346315],[105.7964063,21.034258],[105.796768,21.0341447],[105.7969005,21.0341027],[105.7970014,21.0340647],[105.7970984,21.0340239],[105.7972057,21.0339701],[105.7973298,21.0338969],[105.7974237,21.0338283],[105.7975207,21.0337562],[105.7975919,21.0336883],[105.7976942,21.0335866],[105.7978384,21.0334455],[105.7985168,21.0327661],[105.7994751,21.0318602],[105.8003785,21.0309826],[105.8006467,21.0307231],[105.8009515,21.0304739],[105.8010953,21.0303731],[105.8012651,21.0302643],[105.8013967,21.0301827],[105.8015191,21.030108],[105.8021154,21.0297921],[105.8023718,21.0296708],[105.8025617,21.0295804],[105.8033539,21.0292035]]},"properties":{"name":"Đường sắt đô thị 3 Hà Nội (phân đoạn Nhổn - Ga Hà Nội)","line":"3","status":"operational"}},{"type":"Feature","geometry":{"type":"LineString","coordinates":[[105.7817416,21.0367064],[105.781348,21.0367102],[105.7808669,21.0366948],[105.7803234,21.036678],[105.7796764,21.0366489],[105.7792559,21.0366267],[105.7788734,21.0366305],[105.7785302,21.0366473]]},"properties":{"name":"Đường sắt đô thị 3 Hà Nội (phân đoạn Nhổn - Ga Hà Nội)","line":"3","status":"operational"}},{"type":"Feature","geometry":{"type":"LineString","coordinates":[[105.7784726,21.0366008],[105.7788886,21.0365785],[105.7792606,21.0365763],[105.7813609,21.0366716],[105.7816227,21.0366708],[105.7817372,21.036672]]},"properties":{"name":"Đường sắt đô thị 3 Hà Nội (phân đoạn Nhổn - Ga Hà Nội)","line":"3","status":"operational"}},{"type":"Feature","geometry":{"type":"LineString","coordinates":[[105.7832632,21.002046],[105.781392,21.0023973],[105.7732415,21.0042002],[105.7666221,21.0055822],[105.7508485,21.0088987],[105.7479887,21.0093386],[105.7451788,21.0096684],[105.742121,21.0098218],[105.7261362,21.0108264],[105.7208036,21.0111289],[105.7185053,21.0111289],[105.7156107,21.0109163],[105.7127722,21.0104342],[105.708309,21.0094259],[105.700953,21.0077135],[105.6934603,21.0060174],[105.6913562,21.0056223],[105.6888886,21.0052617],[105.6863447,21.0049813],[105.6767807,21.004141],[105.6714156,21.0037422],[105.667372,21.0033728],[105.6622041,21.0029893],[105.6598953,21.0028513],[105.6583554,21.0028052],[105.6560549,21.0028589],[105.653475,21.0029586],[105.6465267,21.0033652],[105.6426447,21.0035799],[105.6410754,21.0035953],[105.6390789,21.0034725],[105.6309794,21.0026135],[105.6240674,21.0019615],[105.6210832,21.0016777],[105.618873,21.0015492],[105.616281,21.0014495],[105.6124605,21.0013267],[105.6048039,21.0010429],[105.6026724,21.0009279],[105.6005773,21.0005137],[105.5996078,21.0001302],[105.5986876,20.9996776],[105.5967382,20.9987039],[105.5946924,20.9976837],[105.5921901,20.9964411],[105.5861918,20.9934496],[105.5809567,20.9908475],[105.5787108,20.9899393],[105.5761502,20.9893116],[105.5741904,20.9890311],[105.5723879,20.9889777],[105.5697341,20.9890711],[105.5569596,20.9899927],[105.5513358,20.99034],[105.546658,20.9904468],[105.5379054,20.9904185],[105.5280246,20.9903086],[105.5215265,20.9902363],[105.5150594,20.9903375],[105.5033288,20.9901654],[105.4991555,20.9909752]]},"properties":{"name":"Đường sắt đô thị số 5 Hà Nội","line":"số 5","status":"proposed"}},{"type":"Feature","geometry":{"type":"LineString","coordinates":[[105.8133056,21.03138],[105.8131927,21.0310033],[105.8119516,21.0265852],[105.8112659,21.025085],[105.8104203,21.0237771],[105.8082222,21.0199518],[105.8076585,21.0189879],[105.806904,21.0176966],[105.8066543,21.0172334],[105.8062976,21.016862],[105.8025675,21.0133749],[105.8001171,21.011161],[105.7984968,21.0097739],[105.7965155,21.0083216],[105.7960416,21.0079729],[105.7945316,21.0071475],[105.7926201,21.0059297],[105.7904843,21.0044939],[105.7888872,21.0034941],[105.7870002,21.0023271],[105.7842858,21.0019765],[105.7832632,21.002046]]},"properties":{"name":"Đường sắt đô thị số 5 Hà Nội","line":"số 5","status":"proposed"}},{"type":"Feature","geometry":{"type":"Point","coordinates":[105.7484068,20.949796]},"properties":{"name":"Yên Nghĩa","_st":1}},{"type":"Feature","geometry":{"type":"Point","coordinates":[105.8253269,21.0201444]},"properties":{"name":"La Thành","_st":1}},{"type":"Feature","geometry":{"type":"Point","coordinates":[105.8194321,21.0145374]},"properties":{"name":"Thái Hà","_st":1}},{"type":"Feature","geometry":{"type":"Point","coordinates":[105.8160202,21.0064568]},"properties":{"name":"Láng","_st":1}},{"type":"Feature","geometry":{"type":"Point","coordinates":[105.812249,20.9976589]},"properties":{"name":"Thượng Đình","_st":1}},{"type":"Feature","geometry":{"type":"Point","coordinates":[105.8044331,20.9922879]},"properties":{"name":"Vành Đai 3","_st":1}},{"type":"Feature","geometry":{"type":"Point","coordinates":[105.7930346,20.9842949]},"properties":{"name":"Phùng Khoang","_st":1}},{"type":"Feature","geometry":{"type":"Point","coordinates":[105.784762,20.9777421]},"properties":{"name":"Văn Quán","_st":1}},{"type":"Feature","geometry":{"type":"Point","coordinates":[105.7749863,20.9702707]},"properties":{"name":"Hà Đông","_st":1}},{"type":"Feature","geometry":{"type":"Point","coordinates":[105.7562116,20.9556221]},"properties":{"name":"Văn Khê","_st":1}},{"type":"Feature","geometry":{"type":"Point","coordinates":[105.7484438,20.9497634]},"properties":{"name":"Yên Nghĩa","_st":1}},{"type":"Feature","geometry":{"type":"Point","coordinates":[105.756183,20.9556553]},"properties":{"name":"Văn Khê","_st":1}},{"type":"Feature","geometry":{"type":"Point","coordinates":[105.7667964,20.9638428]},"properties":{"name":"La Khê","_st":1}},{"type":"Feature","geometry":{"type":"Point","coordinates":[105.7668214,20.9638218]},"properties":{"name":"La Khê","_st":1}},{"type":"Feature","geometry":{"type":"Point","coordinates":[105.7750059,20.9702497]},"properties":{"name":"Hà Đông","_st":1}},{"type":"Feature","geometry":{"type":"Point","coordinates":[105.7847894,20.9777105]},"properties":{"name":"Văn Quán","_st":1}},{"type":"Feature","geometry":{"type":"Point","coordinates":[105.7930607,20.9842637]},"properties":{"name":"Phùng Khoang","_st":1}},{"type":"Feature","geometry":{"type":"Point","coordinates":[105.8044088,20.9923086]},"properties":{"name":"Vành Đai 3","_st":1}},{"type":"Feature","geometry":{"type":"Point","coordinates":[105.81223,20.9976983]},"properties":{"name":"Thượng Đình","_st":1}},{"type":"Feature","geometry":{"type":"Point","coordinates":[105.8160567,21.0064719]},"properties":{"name":"Láng","_st":1}},{"type":"Feature","geometry":{"type":"Point","coordinates":[105.8273611,21.0281636]},"properties":{"name":"Cát Linh","_st":1}},{"type":"Feature","geometry":{"type":"Point","coordinates":[105.8272207,21.0281565]},"properties":{"name":"Cát Linh","_st":1}},{"type":"Feature","geometry":{"type":"Point","coordinates":[105.8194546,21.0145187]},"properties":{"name":"Thái Hà","_st":1}},{"type":"Feature","geometry":{"type":"Point","coordinates":[105.8253538,21.020136]},"properties":{"name":"La Thành","_st":1}},{"type":"Feature","geometry":{"type":"Point","coordinates":[105.735244,21.0526112]},"properties":{"name":"Nhổn","_st":1}},{"type":"Feature","geometry":{"type":"Point","coordinates":[105.7352194,21.0525714]},"properties":{"name":"Nhổn","_st":1}},{"type":"Feature","geometry":{"type":"Point","coordinates":[105.7448168,21.0480032]},"properties":{"name":"Minh Khai","_st":1}},{"type":"Feature","geometry":{"type":"Point","coordinates":[105.7447965,21.0479495]},"properties":{"name":"Minh Khai","_st":1}},{"type":"Feature","geometry":{"type":"Point","coordinates":[105.7552804,21.0439453]},"properties":{"name":"Phú Diễn","_st":1}},{"type":"Feature","geometry":{"type":"Point","coordinates":[105.7552604,21.0438985]},"properties":{"name":"Phú Diễn","_st":1}},{"type":"Feature","geometry":{"type":"Point","coordinates":[105.7627014,21.0412487]},"properties":{"name":"Cầu Diễn","_st":1}},{"type":"Feature","geometry":{"type":"Point","coordinates":[105.762681,21.0411927]},"properties":{"name":"Cầu Diễn","_st":1}},{"type":"Feature","geometry":{"type":"Point","coordinates":[105.7729948,21.0380658]},"properties":{"name":"Lê Đức Thọ","_st":1}},{"type":"Feature","geometry":{"type":"Point","coordinates":[105.7729857,21.0380271]},"properties":{"name":"Lê Đức Thọ","_st":1}},{"type":"Feature","geometry":{"type":"Point","coordinates":[105.7826932,21.0366812]},"properties":{"name":"Đại học Quốc gia","_st":1}},{"type":"Feature","geometry":{"type":"Point","coordinates":[105.7826928,21.0366441]},"properties":{"name":"Đại học Quốc gia","_st":1}},{"type":"Feature","geometry":{"type":"Point","coordinates":[105.7943815,21.0349419]},"properties":{"name":"Chùa Hà","_st":1}},{"type":"Feature","geometry":{"type":"Point","coordinates":[105.7943621,21.0349016]},"properties":{"name":"Chùa Hà","_st":1}},{"type":"Feature","geometry":{"type":"Point","coordinates":[105.8033744,21.0292367]},"properties":{"name":"Cầu Giấy","_st":1}},{"type":"Feature","geometry":{"type":"Point","coordinates":[105.8033539,21.0292035]},"properties":{"name":"Cầu Giấy","_st":1}},{"type":"Feature","geometry":{"type":"Point","coordinates":[105.8423137,21.0239512]},"properties":{"name":"Hà Nội","_st":1}},{"type":"Feature","geometry":{"type":"Point","coordinates":[105.8422892,21.0238621]},"properties":{"name":"Hà Nội","_st":1}},{"type":"Feature","geometry":{"type":"Point","coordinates":[105.836649,21.0267483]},"properties":{"name":"Văn Miếu","_st":1}},{"type":"Feature","geometry":{"type":"Point","coordinates":[105.8366113,21.0266931]},"properties":{"name":"Văn Miếu","_st":1}},{"type":"Feature","geometry":{"type":"Point","coordinates":[105.828803,21.0293071]},"properties":{"name":"Cát Linh","_st":1}},{"type":"Feature","geometry":{"type":"Point","coordinates":[105.828786,21.0292272]},"properties":{"name":"Cát Linh","_st":1}},{"type":"Feature","geometry":{"type":"Point","coordinates":[105.8141941,21.0305264]},"properties":{"name":"Kim Mã","_st":1}},{"type":"Feature","geometry":{"type":"Point","coordinates":[105.8142027,21.0304183]},"properties":{"name":"Kim Mã","_st":1}},{"type":"Feature","geometry":{"type":"Point","coordinates":[105.8033629,21.0292159]},"properties":{"name":"Cầu Giấy","_st":1}},{"type":"Feature","geometry":{"type":"Point","coordinates":[105.7943718,21.0349218]},"properties":{"name":"Chùa Hà","_st":1}},{"type":"Feature","geometry":{"type":"Point","coordinates":[105.782693,21.0366627]},"properties":{"name":"Đại học Quốc gia","_st":1}},{"type":"Feature","geometry":{"type":"Point","coordinates":[105.7729903,21.0380465]},"properties":{"name":"Lê Đức Thọ","_st":1}},{"type":"Feature","geometry":{"type":"Point","coordinates":[105.7626912,21.0412207]},"properties":{"name":"Cầu Diễn","_st":1}},{"type":"Feature","geometry":{"type":"Point","coordinates":[105.7552704,21.0439219]},"properties":{"name":"Phú Diễn","_st":1}},{"type":"Feature","geometry":{"type":"Point","coordinates":[105.7448067,21.0479764]},"properties":{"name":"Minh Khai","_st":1}},{"type":"Feature","geometry":{"type":"Point","coordinates":[105.7352317,21.0525913]},"properties":{"name":"Nhổn","_st":1}},{"type":"Feature","geometry":{"type":"Point","coordinates":[105.8272765,21.0283804]},"properties":{"name":"Cát Linh","_st":1}},{"type":"Feature","geometry":{"type":"Point","coordinates":[105.8253499,21.020154]},"properties":{"name":"La Thành","_st":1}},{"type":"Feature","geometry":{"type":"Point","coordinates":[105.8194727,21.0145568]},"properties":{"name":"Thái Hà","_st":1}},{"type":"Feature","geometry":{"type":"Point","coordinates":[105.816087,21.0063974]},"properties":{"name":"Láng","_st":1}},{"type":"Feature","geometry":{"type":"Point","coordinates":[105.8122488,20.9976814]},"properties":{"name":"Thượng Đình","_st":1}},{"type":"Feature","geometry":{"type":"Point","coordinates":[105.8044206,20.9922989]},"properties":{"name":"Vành Đai 3","_st":1}},{"type":"Feature","geometry":{"type":"Point","coordinates":[105.7930553,20.9842848]},"properties":{"name":"Phùng Khoang","_st":1}},{"type":"Feature","geometry":{"type":"Point","coordinates":[105.7847989,20.9777315]},"properties":{"name":"Văn Quán","_st":1}},{"type":"Feature","geometry":{"type":"Point","coordinates":[105.7749565,20.9702189]},"properties":{"name":"Hà Đông","_st":1}},{"type":"Feature","geometry":{"type":"Point","coordinates":[105.7668089,20.9638323]},"properties":{"name":"La Khê","_st":1}},{"type":"Feature","geometry":{"type":"Point","coordinates":[105.7561966,20.9556405]},"properties":{"name":"Văn Khê","_st":1}},{"type":"Feature","geometry":{"type":"Point","coordinates":[105.7484253,20.9497797]},"properties":{"name":"Yên Nghĩa","_st":1}}]}