{"type":"FeatureCollection","_note":"192 vi tri ga du kien, tam cua vong tron r~39m trong lop 'Vi tri Ga' cua Google My Maps 'Quy hoach Quoc gia' (mid 1o5qTEzxKDkbO1FLFoVZRP7G-oeShQ0k), tac gia ghi trich tu do an Dieu chinh QHC Thu do (QD 1668/QD-TTg) va tu ghi 'vi tri ga so bo, co the tinh chinh'. KHONG co ten ga, KHONG co so hieu tuyen -> khong duoc dat ten.","features":[{"type":"Feature","properties":{"ward":"Xã Thiên Lộc"},"geometry":{"type":"Point","coordinates":[105.768743,21.119657]}},{"type":"Feature","properties":{"ward":"Xã Tam Hưng"},"geometry":{"type":"Point","coordinates":[105.803707,20.859978]}},{"type":"Feature","properties":{"ward":"Xã Phượng Dực"},"geometry":{"type":"Point","coordinates":[105.817805,20.767343]}},{"type":"Feature","properties":{"ward":"Xã Vân Đình"},"geometry":{"type":"Point","coordinates":[105.818849,20.72979]}},{"type":"Feature","properties":{"ward":"Xã Chuyên Mỹ"},"geometry":{"type":"Point","coordinates":[105.889264,20.690285]}},{"type":"Feature","properties":{"ward":"Xã Dân Hòa"},"geometry":{"type":"Point","coordinates":[105.80753,20.79933]}},{"type":"Feature","properties":{"ward":"Xã Tam Hưng"},"geometry":{"type":"Point","coordinates":[105.789647,20.901954]}},{"type":"Feature","properties":{"ward":"Phường Phú Lương"},"geometry":{"type":"Point","coordinates":[105.783628,20.931023]}},{"type":"Feature","properties":{"ward":"Phường Kiến Hưng"},"geometry":{"type":"Point","coordinates":[105.788898,20.9566]}},{"type":"Feature","properties":{"ward":"Phường Thanh Liệt"},"geometry":{"type":"Point","coordinates":[105.807224,20.970885]}},{"type":"Feature","properties":{"ward":"Phường Phương Liệt"},"geometry":{"type":"Point","coordinates":[105.828334,20.997601]}},{"type":"Feature","properties":{"ward":"Phường Kim Liên"},"geometry":{"type":"Point","coordinates":[105.835329,21.00761]}},{"type":"Feature","properties":{"ward":"Phường Kim Liên"},"geometry":{"type":"Point","coordinates":[105.823319,21.007064]}},{"type":"Feature","properties":{"ward":"Phường Hai Bà Trưng"},"geometry":{"type":"Point","coordinates":[105.851724,21.012508]}},{"type":"Feature","properties":{"ward":"Phường Cửa Nam"},"geometry":{"type":"Point","coordinates":[105.853002,21.024115]}},{"type":"Feature","properties":{"ward":"Phường Hoàn Kiếm"},"geometry":{"type":"Point","coordinates":[105.849151,21.037484]}},{"type":"Feature","properties":{"ward":"Phường Ba Đình"},"geometry":{"type":"Point","coordinates":[105.838084,21.041332]}},{"type":"Feature","properties":{"ward":"Phường Tây Hồ"},"geometry":{"type":"Point","coordinates":[105.818068,21.04225]}},{"type":"Feature","properties":{"ward":"Phường Nghĩa Đô"},"geometry":{"type":"Point","coordinates":[105.80465,21.046206]}},{"type":"Feature","properties":{"ward":"Phường Xuân Đỉnh"},"geometry":{"type":"Point","coordinates":[105.798051,21.06988]}},{"type":"Feature","properties":{"ward":"Phường Phú Thượng"},"geometry":{"type":"Point","coordinates":[105.805597,21.094813]}},{"type":"Feature","properties":{"ward":"Xã Vĩnh Thanh"},"geometry":{"type":"Point","coordinates":[105.819083,21.115436]}},{"type":"Feature","properties":{"ward":"Xã Phúc Thịnh"},"geometry":{"type":"Point","coordinates":[105.820734,21.168084]}},{"type":"Feature","properties":{"ward":"Xã Nội Bài"},"geometry":{"type":"Point","coordinates":[105.833294,21.191475]}},{"type":"Feature","properties":{"ward":"Xã Sóc Sơn"},"geometry":{"type":"Point","coordinates":[105.8467,21.210317]}},{"type":"Feature","properties":{"ward":"Xã Sóc Sơn"},"geometry":{"type":"Point","coordinates":[105.84925,21.231878]}},{"type":"Feature","properties":{"ward":"Xã Sóc Sơn"},"geometry":{"type":"Point","coordinates":[105.847906,21.254802]}},{"type":"Feature","properties":{"ward":"Xã Sóc Sơn"},"geometry":{"type":"Point","coordinates":[105.856313,21.272323]}},{"type":"Feature","properties":{"ward":"Xã Ứng Hòa"},"geometry":{"type":"Point","coordinates":[105.860027,20.695986]}},{"type":"Feature","properties":{"ward":"Xã Chuyên Mỹ"},"geometry":{"type":"Point","coordinates":[105.910159,20.705025]}},{"type":"Feature","properties":{"ward":"Xã Phú Xuyên"},"geometry":{"type":"Point","coordinates":[105.912361,20.7317]}},{"type":"Feature","properties":{"ward":"Xã Phú Xuyên"},"geometry":{"type":"Point","coordinates":[105.905496,20.766898]}},{"type":"Feature","properties":{"ward":"Xã Chương Dương"},"geometry":{"type":"Point","coordinates":[105.883678,20.809432]}},{"type":"Feature","properties":{"ward":"Xã Thường Tín"},"geometry":{"type":"Point","coordinates":[105.863526,20.873518]}},{"type":"Feature","properties":{"ward":"Xã Ngọc Hồi"},"geometry":{"type":"Point","coordinates":[105.854675,20.89876]}},{"type":"Feature","properties":{"ward":"Xã Thanh Trì"},"geometry":{"type":"Point","coordinates":[105.847197,20.931948]}},{"type":"Feature","properties":{"ward":"Phường Hoàng Liệt"},"geometry":{"type":"Point","coordinates":[105.843477,20.953722]}},{"type":"Feature","properties":{"ward":"Phường Phương Liệt"},"geometry":{"type":"Point","coordinates":[105.840999,20.994594]}},{"type":"Feature","properties":{"ward":"Phường Văn Miếu - Quốc Tử Giám"},"geometry":{"type":"Point","coordinates":[105.841114,21.025783]}},{"type":"Feature","properties":{"ward":"Phường Hoàn Kiếm"},"geometry":{"type":"Point","coordinates":[105.845765,21.035355]}},{"type":"Feature","properties":{"ward":"Phường Bồ Đề"},"geometry":{"type":"Point","coordinates":[105.875486,21.050049]}},{"type":"Feature","properties":{"ward":"Phường Việt Hưng"},"geometry":{"type":"Point","coordinates":[105.899005,21.067821]}},{"type":"Feature","properties":{"ward":"Phường Long Biên"},"geometry":{"type":"Point","coordinates":[105.910446,21.031281]}},{"type":"Feature","properties":{"ward":"Xã Gia Lâm"},"geometry":{"type":"Point","coordinates":[105.941314,21.018827]}},{"type":"Feature","properties":{"ward":"Xã Gia Lâm"},"geometry":{"type":"Point","coordinates":[105.9603,21.004995]}},{"type":"Feature","properties":{"ward":"Xã Thanh Trì"},"geometry":{"type":"Point","coordinates":[105.841066,20.931416]}},{"type":"Feature","properties":{"ward":"Xã Ngọc Hồi"},"geometry":{"type":"Point","coordinates":[105.841385,20.920631]}},{"type":"Feature","properties":{"ward":"Xã Đại Thanh"},"geometry":{"type":"Point","coordinates":[105.829046,20.928799]}},{"type":"Feature","properties":{"ward":"Xã Đại Thanh"},"geometry":{"type":"Point","coordinates":[105.800666,20.938998]}},{"type":"Feature","properties":{"ward":"Phường Kiến Hưng"},"geometry":{"type":"Point","coordinates":[105.774186,20.94827]}},{"type":"Feature","properties":{"ward":"Phường Dương Nội"},"geometry":{"type":"Point","coordinates":[105.749606,20.957168]}},{"type":"Feature","properties":{"ward":"Xã An Khánh"},"geometry":{"type":"Point","coordinates":[105.728961,20.980739]}},{"type":"Feature","properties":{"ward":"Phường Ngọc Hà"},"geometry":{"type":"Point","coordinates":[105.814433,21.035071]}},{"type":"Feature","properties":{"ward":"Phường Giảng Võ"},"geometry":{"type":"Point","coordinates":[105.808872,21.020996]}},{"type":"Feature","properties":{"ward":"Phường Đại Mỗ"},"geometry":{"type":"Point","coordinates":[105.787662,21.002464]}},{"type":"Feature","properties":{"ward":"Phường Tây Mỗ"},"geometry":{"type":"Point","coordinates":[105.75105,21.00884]}},{"type":"Feature","properties":{"ward":"Xã An Khánh"},"geometry":{"type":"Point","coordinates":[105.712849,21.010398]}},{"type":"Feature","properties":{"ward":"Xã Quốc Oai"},"geometry":{"type":"Point","coordinates":[105.653557,21.002978]}},{"type":"Feature","properties":{"ward":"Xã Kiều Phú"},"geometry":{"type":"Point","coordinates":[105.597209,20.998961]}},{"type":"Feature","properties":{"ward":"Xã Hòa Lạc"},"geometry":{"type":"Point","coordinates":[105.540546,20.990384]}},{"type":"Feature","properties":{"ward":"Xã Hòa Lạc"},"geometry":{"type":"Point","coordinates":[105.505264,20.990036]}},{"type":"Feature","properties":{"ward":"Xã Hòa Lạc"},"geometry":{"type":"Point","coordinates":[105.473411,21.006478]}},{"type":"Feature","properties":{"ward":"Xã Yên Bài"},"geometry":{"type":"Point","coordinates":[105.453993,21.025995]}},{"type":"Feature","properties":{"ward":"Xã Hòa Lạc"},"geometry":{"type":"Point","coordinates":[105.519531,21.004174]}},{"type":"Feature","properties":{"ward":"Xã Đoài Phương"},"geometry":{"type":"Point","coordinates":[105.512605,21.03815]}},{"type":"Feature","properties":{"ward":"Xã Đoài Phương"},"geometry":{"type":"Point","coordinates":[105.502232,21.076858]}},{"type":"Feature","properties":{"ward":"Phường Tùng Thiện"},"geometry":{"type":"Point","coordinates":[105.495687,21.108656]}},{"type":"Feature","properties":{"ward":"Phường Sơn Tây"},"geometry":{"type":"Point","coordinates":[105.481092,21.1442]}},{"type":"Feature","properties":{"ward":"Phường Sơn Tây"},"geometry":{"type":"Point","coordinates":[105.492789,21.15075]}},{"type":"Feature","properties":{"ward":"Phường Sơn Tây"},"geometry":{"type":"Point","coordinates":[105.510044,21.139797]}},{"type":"Feature","properties":{"ward":"Xã Phúc Thọ"},"geometry":{"type":"Point","coordinates":[105.520505,21.123491]}},{"type":"Feature","properties":{"ward":"Xã Phúc Thọ"},"geometry":{"type":"Point","coordinates":[105.541407,21.105676]}},{"type":"Feature","properties":{"ward":"Xã Hát Môn"},"geometry":{"type":"Point","coordinates":[105.597576,21.088288]}},{"type":"Feature","properties":{"ward":"Xã Hát Môn"},"geometry":{"type":"Point","coordinates":[105.643223,21.086946]}},{"type":"Feature","properties":{"ward":"Xã Hoài Đức"},"geometry":{"type":"Point","coordinates":[105.692341,21.077996]}},{"type":"Feature","properties":{"ward":"Phường Tây Tựu"},"geometry":{"type":"Point","coordinates":[105.740822,21.049591]}},{"type":"Feature","properties":{"ward":"Phường Phú Diễn"},"geometry":{"type":"Point","coordinates":[105.776772,21.037045]}},{"type":"Feature","properties":{"ward":"Phường Giảng Võ"},"geometry":{"type":"Point","coordinates":[105.823586,21.030649]}},{"type":"Feature","properties":{"ward":"Phường Cửa Nam"},"geometry":{"type":"Point","coordinates":[105.847441,21.022378]}},{"type":"Feature","properties":{"ward":"Phường Vĩnh Tuy"},"geometry":{"type":"Point","coordinates":[105.862255,20.999509]}},{"type":"Feature","properties":{"ward":"Phường Hoàng Mai"},"geometry":{"type":"Point","coordinates":[105.866937,20.971252]}},{"type":"Feature","properties":{"ward":"Phường Kiến Hưng"},"geometry":{"type":"Point","coordinates":[105.767529,20.959409]}},{"type":"Feature","properties":{"ward":"Phường Dương Nội"},"geometry":{"type":"Point","coordinates":[105.745302,20.979233]}},{"type":"Feature","properties":{"ward":"Phường Tây Mỗ"},"geometry":{"type":"Point","coordinates":[105.733275,21.001464]}},{"type":"Feature","properties":{"ward":"Xã Sơn Đồng"},"geometry":{"type":"Point","coordinates":[105.724834,21.038311]}},{"type":"Feature","properties":{"ward":"Xã Mê Linh"},"geometry":{"type":"Point","coordinates":[105.747151,21.136286]}},{"type":"Feature","properties":{"ward":"Xã Quang Minh"},"geometry":{"type":"Point","coordinates":[105.746657,21.170959]}},{"type":"Feature","properties":{"ward":"Xã Quang Minh"},"geometry":{"type":"Point","coordinates":[105.769465,21.208768]}},{"type":"Feature","properties":{"ward":"Phường Xuân Phương"},"geometry":{"type":"Point","coordinates":[105.742431,21.015058]}},{"type":"Feature","properties":{"ward":"Phường Xuân Phương"},"geometry":{"type":"Point","coordinates":[105.755627,21.041462]}},{"type":"Feature","properties":{"ward":"Phường Phú Diễn"},"geometry":{"type":"Point","coordinates":[105.7678,21.053766]}},{"type":"Feature","properties":{"ward":"Phường Đông Ngạc"},"geometry":{"type":"Point","coordinates":[105.785386,21.083579]}},{"type":"Feature","properties":{"ward":"Xã Vĩnh Thanh"},"geometry":{"type":"Point","coordinates":[105.788333,21.122716]}},{"type":"Feature","properties":{"ward":"Xã Phúc Thịnh"},"geometry":{"type":"Point","coordinates":[105.790935,21.164471]}},{"type":"Feature","properties":{"ward":"Xã Quang Minh"},"geometry":{"type":"Point","coordinates":[105.780501,21.199003]}},{"type":"Feature","properties":{"ward":"Xã Nội Bài"},"geometry":{"type":"Point","coordinates":[105.788816,21.216921]}},{"type":"Feature","properties":{"ward":"Xã Nội Bài"},"geometry":{"type":"Point","coordinates":[105.812953,21.209966]}},{"type":"Feature","properties":{"ward":"Xã Thuận An"},"geometry":{"type":"Point","coordinates":[105.970029,21.02179]}},{"type":"Feature","properties":{"ward":"Xã Phù Đổng"},"geometry":{"type":"Point","coordinates":[105.972715,21.05693]}},{"type":"Feature","properties":{"ward":"Xã Phù Đổng"},"geometry":{"type":"Point","coordinates":[105.945398,21.064053]}},{"type":"Feature","properties":{"ward":"Xã Phù Đổng"},"geometry":{"type":"Point","coordinates":[105.926634,21.085004]}},{"type":"Feature","properties":{"ward":"Xã Đông Anh"},"geometry":{"type":"Point","coordinates":[105.900453,21.106395]}},{"type":"Feature","properties":{"ward":"Xã Đông Anh"},"geometry":{"type":"Point","coordinates":[105.873671,21.132791]}},{"type":"Feature","properties":{"ward":"Xã Đông Anh"},"geometry":{"type":"Point","coordinates":[105.853025,21.145297]}},{"type":"Feature","properties":{"ward":"Xã Phúc Thịnh"},"geometry":{"type":"Point","coordinates":[105.827157,21.152575]}},{"type":"Feature","properties":{"ward":"Xã Phúc Thịnh"},"geometry":{"type":"Point","coordinates":[105.806026,21.16179]}},{"type":"Feature","properties":{"ward":"Xã Mê Linh"},"geometry":{"type":"Point","coordinates":[105.767195,21.169205]}},{"type":"Feature","properties":{"ward":"Xã Mê Linh"},"geometry":{"type":"Point","coordinates":[105.728196,21.171503]}},{"type":"Feature","properties":{"ward":"Xã Tiến Thắng"},"geometry":{"type":"Point","coordinates":[105.701321,21.186119]}},{"type":"Feature","properties":{"ward":"Xã Tiến Thắng"},"geometry":{"type":"Point","coordinates":[105.675766,21.200208]}},{"type":"Feature","properties":{"ward":"Xã Gia Lâm"},"geometry":{"type":"Point","coordinates":[105.951538,21.007252]}},{"type":"Feature","properties":{"ward":"Xã Bát Tràng"},"geometry":{"type":"Point","coordinates":[105.92398,20.992419]}},{"type":"Feature","properties":{"ward":"Phường Lĩnh Nam"},"geometry":{"type":"Point","coordinates":[105.881788,20.973143]}},{"type":"Feature","properties":{"ward":"Phường Hoàng Liệt"},"geometry":{"type":"Point","coordinates":[105.834737,20.966318]}},{"type":"Feature","properties":{"ward":"Phường Thanh Liệt"},"geometry":{"type":"Point","coordinates":[105.806568,20.986896]}},{"type":"Feature","properties":{"ward":"Phường Từ Liêm"},"geometry":{"type":"Point","coordinates":[105.787831,21.010561]}},{"type":"Feature","properties":{"ward":"Phường Cầu Giấy"},"geometry":{"type":"Point","coordinates":[105.780023,21.033194]}},{"type":"Feature","properties":{"ward":"Phường Phú Diễn"},"geometry":{"type":"Point","coordinates":[105.755858,21.046057]}},{"type":"Feature","properties":{"ward":"Xã Hoài Đức"},"geometry":{"type":"Point","coordinates":[105.714109,21.04601]}},{"type":"Feature","properties":{"ward":"Xã Dương Hòa"},"geometry":{"type":"Point","coordinates":[105.691583,21.045818]}},{"type":"Feature","properties":{"ward":"Phường Đông Ngạc"},"geometry":{"type":"Point","coordinates":[105.764545,21.063624]}},{"type":"Feature","properties":{"ward":"Xã Ô Diên"},"geometry":{"type":"Point","coordinates":[105.718817,21.089407]}},{"type":"Feature","properties":{"ward":"Xã Ô Diên"},"geometry":{"type":"Point","coordinates":[105.706179,21.102872]}},{"type":"Feature","properties":{"ward":"Phường Đống Đa"},"geometry":{"type":"Point","coordinates":[105.820244,21.015271]}},{"type":"Feature","properties":{"ward":"Phường Thanh Xuân"},"geometry":{"type":"Point","coordinates":[105.801422,20.99026]}},{"type":"Feature","properties":{"ward":"Phường Hà Đông"},"geometry":{"type":"Point","coordinates":[105.777099,20.972126]}},{"type":"Feature","properties":{"ward":"Phường Dương Nội"},"geometry":{"type":"Point","coordinates":[105.758261,20.957306]}},{"type":"Feature","properties":{"ward":"Phường Yên Nghĩa"},"geometry":{"type":"Point","coordinates":[105.732299,20.93923]}},{"type":"Feature","properties":{"ward":"Phường Chương Mỹ"},"geometry":{"type":"Point","coordinates":[105.687891,20.926774]}},{"type":"Feature","properties":{"ward":"Xã Phú Nghĩa"},"geometry":{"type":"Point","coordinates":[105.647004,20.92204]}},{"type":"Feature","properties":{"ward":"Xã Xuân Mai"},"geometry":{"type":"Point","coordinates":[105.59233,20.905648]}},{"type":"Feature","properties":{"ward":"Xã Xuân Mai"},"geometry":{"type":"Point","coordinates":[105.576975,20.912415]}},{"type":"Feature","properties":{"ward":"Xã Xuân Mai"},"geometry":{"type":"Point","coordinates":[105.601521,20.868364]}},{"type":"Feature","properties":{"ward":"Xã Trần Phú"},"geometry":{"type":"Point","coordinates":[105.656106,20.849358]}},{"type":"Feature","properties":{"ward":"Xã Hòa Phú"},"geometry":{"type":"Point","coordinates":[105.713,20.845501]}},{"type":"Feature","properties":{"ward":"Xã Ứng Thiên"},"geometry":{"type":"Point","coordinates":[105.759728,20.754414]}},{"type":"Feature","properties":{"ward":"Xã Vân Đình"},"geometry":{"type":"Point","coordinates":[105.808441,20.737716]}},{"type":"Feature","properties":{"ward":"Xã Chuyên Mỹ"},"geometry":{"type":"Point","coordinates":[105.868515,20.76119]}},{"type":"Feature","properties":{"ward":"Xã Phú Xuyên"},"geometry":{"type":"Point","coordinates":[105.897127,20.76906]}},{"type":"Feature","properties":{"ward":"Xã Phú Cát"},"geometry":{"type":"Point","coordinates":[105.542476,20.949414]}},{"type":"Feature","properties":{"ward":"Xã Ứng Thiên"},"geometry":{"type":"Point","coordinates":[105.732895,20.802274]}},{"type":"Feature","properties":{"ward":"Xã Tam Hưng"},"geometry":{"type":"Point","coordinates":[105.797106,20.885653]}},{"type":"Feature","properties":{"ward":"Xã Phúc Thịnh"},"geometry":{"type":"Point","coordinates":[105.81918,21.146421]}},{"type":"Feature","properties":{"ward":"Xã Quang Minh"},"geometry":{"type":"Point","coordinates":[105.752627,21.19291]}},{"type":"Feature","properties":{"ward":"Phường Văn Miếu - Quốc Tử Giám"},"geometry":{"type":"Point","coordinates":[105.841237,21.014932]}},{"type":"Feature","properties":{"ward":"Xã Phượng Dực"},"geometry":{"type":"Point","coordinates":[105.833425,20.742018]}},{"type":"Feature","properties":{"ward":"Xã Dân Hòa"},"geometry":{"type":"Point","coordinates":[105.814176,20.82015]}},{"type":"Feature","properties":{"ward":"Xã Tam Hưng"},"geometry":{"type":"Point","coordinates":[105.807537,20.841594]}},{"type":"Feature","properties":{"ward":"Phường Yên Sở"},"geometry":{"type":"Point","coordinates":[105.865077,20.964003]}},{"type":"Feature","properties":{"ward":"Xã Thiên Lộc"},"geometry":{"type":"Point","coordinates":[105.750666,21.113573]}},{"type":"Feature","properties":{"ward":"Phường Ô Chợ Dừa"},"geometry":{"type":"Point","coordinates":[105.821785,21.025173]}},{"type":"Feature","properties":{"ward":"Phường Thanh Xuân"},"geometry":{"type":"Point","coordinates":[105.810353,21.009862]}},{"type":"Feature","properties":{"ward":"Phường Thanh Xuân"},"geometry":{"type":"Point","coordinates":[105.80052,21.002379]}},{"type":"Feature","properties":{"ward":"Phường Đại Mỗ"},"geometry":{"type":"Point","coordinates":[105.784592,20.991513]}},{"type":"Feature","properties":{"ward":"Phường Hà Đông"},"geometry":{"type":"Point","coordinates":[105.761078,20.975673]}},{"type":"Feature","properties":{"ward":"Phường Yên Nghĩa"},"geometry":{"type":"Point","coordinates":[105.737435,20.95663]}},{"type":"Feature","properties":{"ward":"Phường Việt Hưng"},"geometry":{"type":"Point","coordinates":[105.885603,21.057313]}},{"type":"Feature","properties":{"ward":"Phường Khương Đình"},"geometry":{"type":"Point","coordinates":[105.813683,20.998467]}},{"type":"Feature","properties":{"ward":"Phường Nghĩa Đô"},"geometry":{"type":"Point","coordinates":[105.790453,21.04312]}},{"type":"Feature","properties":{"ward":"Phường Tây Tựu"},"geometry":{"type":"Point","coordinates":[105.745858,21.070848]}},{"type":"Feature","properties":{"ward":"Phường Thượng Cát"},"geometry":{"type":"Point","coordinates":[105.733119,21.086927]}},{"type":"Feature","properties":{"ward":"Xã Thiên Lộc"},"geometry":{"type":"Point","coordinates":[105.747546,21.112048]}},{"type":"Feature","properties":{"ward":"Xã Như Quỳnh"},"geometry":{"type":"Point","coordinates":[105.979751,20.982977]}},{"type":"Feature","properties":{"ward":"Phường Long Biên"},"geometry":{"type":"Point","coordinates":[105.899395,21.017236]}},{"type":"Feature","properties":{"ward":"Phường Vĩnh Hưng"},"geometry":{"type":"Point","coordinates":[105.883994,20.987827]}},{"type":"Feature","properties":{"ward":"Phường Xuân Đỉnh"},"geometry":{"type":"Point","coordinates":[105.789962,21.059203]}},{"type":"Feature","properties":{"ward":"Phường Cầu Giấy"},"geometry":{"type":"Point","coordinates":[105.788794,21.025437]}},{"type":"Feature","properties":{"ward":"Phường Khương Đình"},"geometry":{"type":"Point","coordinates":[105.819818,20.993109]}},{"type":"Feature","properties":{"ward":"Phường Tương Mai"},"geometry":{"type":"Point","coordinates":[105.860746,20.983645]}},{"type":"Feature","properties":{"ward":"Phường Long Biên"},"geometry":{"type":"Point","coordinates":[105.892144,21.049189]}},{"type":"Feature","properties":{"ward":"Xã Vĩnh Thanh"},"geometry":{"type":"Point","coordinates":[105.793769,21.124822]}},{"type":"Feature","properties":{"ward":"Xã Đông Anh"},"geometry":{"type":"Point","coordinates":[105.840918,21.118518]}},{"type":"Feature","properties":{"ward":"Xã Đông Anh"},"geometry":{"type":"Point","coordinates":[105.873228,21.078906]}},{"type":"Feature","properties":{"ward":"Xã Phú Nghĩa"},"geometry":{"type":"Point","coordinates":[105.670437,20.928743]}},{"type":"Feature","properties":{"ward":"Phường Chương Mỹ"},"geometry":{"type":"Point","coordinates":[105.713636,20.928239]}},{"type":"Feature","properties":{"ward":"Xã Xuân Mai"},"geometry":{"type":"Point","coordinates":[105.582589,20.891614]}},{"type":"Feature","properties":{"ward":"Xã Trần Phú"},"geometry":{"type":"Point","coordinates":[105.629737,20.853349]}},{"type":"Feature","properties":{"ward":"Xã Xuân Mai"},"geometry":{"type":"Point","coordinates":[105.573684,20.895634]}},{"type":"Feature","properties":{"ward":"Xã Phú Xuyên"},"geometry":{"type":"Point","coordinates":[105.881728,20.763897]}},{"type":"Feature","properties":{"ward":"Xã Phú Xuyên"},"geometry":{"type":"Point","coordinates":[105.912001,20.745474]}},{"type":"Feature","properties":{"ward":"Xã Phú Xuyên"},"geometry":{"type":"Point","coordinates":[105.890475,20.789812]}},{"type":"Feature","properties":{"ward":"Xã Phú Xuyên"},"geometry":{"type":"Point","coordinates":[105.914683,20.777646]}},{"type":"Feature","properties":{"ward":"Xã Yên Xuân"},"geometry":{"type":"Point","coordinates":[105.527528,20.9805]}},{"type":"Feature","properties":{"ward":"Phường Tùng Thiện"},"geometry":{"type":"Point","coordinates":[105.490236,21.125072]}},{"type":"Feature","properties":{"ward":"Xã Phúc Thọ"},"geometry":{"type":"Point","coordinates":[105.582204,21.092331]}},{"type":"Feature","properties":{"ward":"Xã Thạch Thất"},"geometry":{"type":"Point","coordinates":[105.560697,21.099806]}},{"type":"Feature","properties":{"ward":"Xã Kiều Phú"},"geometry":{"type":"Point","coordinates":[105.627648,21.002272]}},{"type":"Feature","properties":{"ward":"Xã Ứng Thiên"},"geometry":{"type":"Point","coordinates":[105.777281,20.741876]}},{"type":"Feature","properties":{"ward":"Xã Ứng Hòa"},"geometry":{"type":"Point","coordinates":[105.840628,20.702974]}},{"type":"Feature","properties":{"ward":"Phường Yên Sở"},"geometry":{"type":"Point","coordinates":[105.869071,20.958806]}},{"type":"Feature","properties":{"ward":"Xã Thiên Lộc"},"geometry":{"type":"Point","coordinates":[105.743852,21.106036]}},{"type":"Feature","properties":{"ward":"Xã Thiên Lộc"},"geometry":{"type":"Point","coordinates":[105.768743,21.119657]}}]}