{
  "type": "FeatureCollection",
  "features": [
    {
      "type": "Feature",
      "id": "metro_line_2a",
      "properties": {
        "line_id": "line_2a",
        "name": "Tuyến số 2A (Cát Linh - Hà Đông)",
        "status": "operating",
        "status_vi": "Đang chạy",
        "length_km": 13.1,
        "stations_count": 12,
        "color": "#10b981",
        "type": "Metro hiện hữu",
        "description": "Tuyến metro đầu tiên đi vào hoạt động thương mại tại Việt Nam từ tháng 11/2021. Kết nối trung tâm Đống Đa với Hà Đông."
      },
      "geometry": {
        "type": "LineString",
        "coordinates": [
          [105.825, 21.027],
          [105.820, 21.018],
          [105.815, 21.011],
          [105.812, 21.003],
          [105.805, 20.998],
          [105.798, 20.992],
          [105.789, 20.985],
          [105.782, 20.978],
          [105.776, 20.972],
          [105.767, 20.966],
          [105.759, 20.960],
          [105.750, 20.953]
        ]
      }
    },
    {
      "type": "Feature",
      "id": "metro_line_3",
      "properties": {
        "line_id": "line_3",
        "name": "Tuyến số 3 (Nhổn - Ga Hà Nội)",
        "status": "construction",
        "status_vi": "Một phần đang chạy / đang xây",
        "length_km": 12.5,
        "stations_count": 12,
        "color": "#f59e0b",
        "type": "Đang chạy & Đang xây dựng",
        "description": "Đoạn trên cao (Nhổn - Cầu Giấy) đã đưa vào khai thác thương mại tháng 8/2024. Đoạn ngầm (Cầu Giấy - Ga Hà Nội) đang thi công tích cực."
      },
      "geometry": {
        "type": "LineString",
        "coordinates": [
          [105.733, 21.053],
          [105.748, 21.049],
          [105.762, 21.045],
          [105.774, 21.042],
          [105.785, 21.037],
          [105.795, 21.036],
          [105.803, 21.035],
          [105.812, 21.031],
          [105.822, 21.030],
          [105.825, 21.027],
          [105.836, 21.028],
          [105.843, 21.025]
        ]
      }
    },
    {
      "type": "Feature",
      "id": "metro_line_5",
      "properties": {
        "line_id": "line_5",
        "name": "Tuyến số 5 (Văn Cao - Ngọc Khánh - Hòa Lạc)",
        "status": "planned",
        "status_vi": "Quy hoạch (đang chuẩn bị đầu tư)",
        "length_km": 38.4,
        "stations_count": 21,
        "color": "#3b82f6",
        "type": "Quy hoạch",
        "description": "Kết nối khu trung tâm Ba Đình với đô thị vệ tinh Hòa Lạc. Dự án dự kiến khởi công trong giai đoạn 2026-2030."
      },
      "geometry": {
        "type": "LineString",
        "coordinates": [
          [105.817, 21.043],
          [105.812, 21.033],
          [105.803, 21.020],
          [105.790, 21.007],
          [105.770, 20.995],
          [105.720, 20.985]
        ]
      }
    },
    {
      "type": "Feature",
      "id": "metro_line_2",
      "properties": {
        "line_id": "line_2",
        "name": "Tuyến số 2 (Nam Thăng Long - Trần Hưng Đạo)",
        "status": "planned",
        "status_vi": "Quy hoạch (chuẩn bị mặt bằng)",
        "length_km": 11.5,
        "stations_count": 10,
        "color": "#8b5cf6",
        "type": "Quy hoạch",
        "description": "Tuyến đường sắt đô thị chạy ngầm qua khu phố cổ và hồ Hoàn Kiếm, kết nối khu đô thị Nam Thăng Long Ciputra."
      },
      "geometry": {
        "type": "LineString",
        "coordinates": [
          [105.790, 21.085],
          [105.800, 21.072],
          [105.810, 21.065],
          [105.807, 21.050],
          [105.813, 21.042],
          [105.827, 21.040],
          [105.845, 21.035],
          [105.853, 21.023],
          [105.856, 21.018]
        ]
      }
    }
  ]
}
