{
  "type": "FeatureCollection",
  "features": [
    {
      "type": "Feature",
      "properties": { "name": "Ga Cát Linh", "line": "Tuyến 2A", "status": "operating", "status_vi": "Đang hoạt động", "color": "#10b981", "type": "Ga trung chuyển (2A & 3)" },
      "geometry": { "type": "Point", "coordinates": [105.825, 21.027] }
    },
    {
      "type": "Feature",
      "properties": { "name": "Ga La Thành", "line": "Tuyến 2A", "status": "operating", "status_vi": "Đang hoạt động", "color": "#10b981", "type": "Ga trên cao" },
      "geometry": { "type": "Point", "coordinates": [105.820, 21.018] }
    },
    {
      "type": "Feature",
      "properties": { "name": "Ga Thái Hà", "line": "Tuyến 2A", "status": "operating", "status_vi": "Đang hoạt động", "color": "#10b981", "type": "Ga trên cao" },
      "geometry": { "type": "Point", "coordinates": [105.815, 21.011] }
    },
    {
      "type": "Feature",
      "properties": { "name": "Ga Đường Láng", "line": "Tuyến 2A", "status": "operating", "status_vi": "Đang hoạt động", "color": "#10b981", "type": "Ga trên cao" },
      "geometry": { "type": "Point", "coordinates": [105.812, 21.003] }
    },
    {
      "type": "Feature",
      "properties": { "name": "Ga Thượng Đình", "line": "Tuyến 2A", "status": "operating", "status_vi": "Đang hoạt động", "color": "#10b981", "type": "Ga trên cao" },
      "geometry": { "type": "Point", "coordinates": [105.805, 20.998] }
    },
    {
      "type": "Feature",
      "properties": { "name": "Ga Vành Đai 3", "line": "Tuyến 2A", "status": "operating", "status_vi": "Đang hoạt động", "color": "#10b981", "type": "Ga trên cao" },
      "geometry": { "type": "Point", "coordinates": [105.798, 20.992] }
    },
    {
      "type": "Feature",
      "properties": { "name": "Ga Phùng Khoang", "line": "Tuyến 2A", "status": "operating", "status_vi": "Đang hoạt động", "color": "#10b981", "type": "Ga trên cao" },
      "geometry": { "type": "Point", "coordinates": [105.789, 20.985] }
    },
    {
      "type": "Feature",
      "properties": { "name": "Ga Văn Quán", "line": "Tuyến 2A", "status": "operating", "status_vi": "Đang hoạt động", "color": "#10b981", "type": "Ga trên cao" },
      "geometry": { "type": "Point", "coordinates": [105.782, 20.978] }
    },
    {
      "type": "Feature",
      "properties": { "name": "Ga Hà Đông", "line": "Tuyến 2A", "status": "operating", "status_vi": "Đang hoạt động", "color": "#10b981", "type": "Ga trên cao" },
      "geometry": { "type": "Point", "coordinates": [105.776, 20.972] }
    },
    {
      "type": "Feature",
      "properties": { "name": "Ga La Khê", "line": "Tuyến 2A", "status": "operating", "status_vi": "Đang hoạt động", "color": "#10b981", "type": "Ga trên cao" },
      "geometry": { "type": "Point", "coordinates": [105.767, 20.966] }
    },
    {
      "type": "Feature",
      "properties": { "name": "Ga Văn Khê", "line": "Tuyến 2A", "status": "operating", "status_vi": "Đang hoạt động", "color": "#10b981", "type": "Ga trên cao" },
      "geometry": { "type": "Point", "coordinates": [105.759, 20.960] }
    },
    {
      "type": "Feature",
      "properties": { "name": "Ga Yên Nghĩa", "line": "Tuyến 2A", "status": "operating", "status_vi": "Đang hoạt động", "color": "#10b981", "type": "Ga trung tâm hành trình" },
      "geometry": { "type": "Point", "coordinates": [105.750, 20.953] }
    },
    {
      "type": "Feature",
      "properties": { "name": "Ga Nhổn", "line": "Tuyến 3", "status": "operating", "status_vi": "Đang hoạt động", "color": "#10b981", "type": "Ga trên cao" },
      "geometry": { "type": "Point", "coordinates": [105.733, 21.053] }
    },
    {
      "type": "Feature",
      "properties": { "name": "Ga Minh Khai", "line": "Tuyến 3", "status": "operating", "status_vi": "Đang hoạt động", "color": "#10b981", "type": "Ga trên cao" },
      "geometry": { "type": "Point", "coordinates": [105.748, 21.049] }
    },
    {
      "type": "Feature",
      "properties": { "name": "Ga Phú Diễn", "line": "Tuyến 3", "status": "operating", "status_vi": "Đang hoạt động", "color": "#10b981", "type": "Ga trên cao" },
      "geometry": { "type": "Point", "coordinates": [105.762, 21.045] }
    },
    {
      "type": "Feature",
      "properties": { "name": "Ga Cầu Diễn", "line": "Tuyến 3", "status": "operating", "status_vi": "Đang hoạt động", "color": "#10b981", "type": "Ga trên cao" },
      "geometry": { "type": "Point", "coordinates": [105.774, 21.042] }
    },
    {
      "type": "Feature",
      "properties": { "name": "Ga Lê Đức Thọ", "line": "Tuyến 3", "status": "operating", "status_vi": "Đang hoạt động", "color": "#10b981", "type": "Ga trên cao" },
      "geometry": { "type": "Point", "coordinates": [105.785, 21.037] }
    },
    {
      "type": "Feature",
      "properties": { "name": "Ga Đại học Quốc gia", "line": "Tuyến 3", "status": "operating", "status_vi": "Đang hoạt động", "color": "#10b981", "type": "Ga trên cao" },
      "geometry": { "type": "Point", "coordinates": [105.795, 21.036] }
    },
    {
      "type": "Feature",
      "properties": { "name": "Ga Chùa Hà", "line": "Tuyến 3", "status": "operating", "status_vi": "Đang hoạt động", "color": "#10b981", "type": "Ga trên cao" },
      "geometry": { "type": "Point", "coordinates": [105.803, 21.035] }
    },
    {
      "type": "Feature",
      "properties": { "name": "Ga Cầu Giấy", "line": "Tuyến 3", "status": "operating", "status_vi": "Đang hoạt động", "color": "#10b981", "type": "Ga trung chuyển" },
      "geometry": { "type": "Point", "coordinates": [105.812, 21.031] }
    },
    {
      "type": "Feature",
      "properties": { "name": "Ga Kim Mã", "line": "Tuyến 3", "status": "construction", "status_vi": "Đang thi công", "color": "#f59e0b", "type": "Ga ngầm" },
      "geometry": { "type": "Point", "coordinates": [105.822, 21.030] }
    },
    {
      "type": "Feature",
      "properties": { "name": "Ga Quốc Tử Giám", "line": "Tuyến 3", "status": "construction", "status_vi": "Đang thi công", "color": "#f59e0b", "type": "Ga ngầm" },
      "geometry": { "type": "Point", "coordinates": [105.836, 21.028] }
    },
    {
      "type": "Feature",
      "properties": { "name": "Ga Hà Nội", "line": "Tuyến 3", "status": "construction", "status_vi": "Đang thi công", "color": "#f59e0b", "type": "Ga trung tâm ngầm" },
      "geometry": { "type": "Point", "coordinates": [105.843, 21.025] }
    },
    {
      "type": "Feature",
      "properties": { "name": "Ga Nam Thăng Long", "line": "Tuyến 2", "status": "planned", "status_vi": "Dự kiến quy hoạch", "color": "#d97706", "type": "Ga quy hoạch" },
      "geometry": { "type": "Point", "coordinates": [105.790, 21.085] }
    },
    {
      "type": "Feature",
      "properties": { "name": "Ga Ngoại Giao Đoàn", "line": "Tuyến 2", "status": "planned", "status_vi": "Dự kiến quy hoạch", "color": "#d97706", "type": "Ga quy hoạch" },
      "geometry": { "type": "Point", "coordinates": [105.800, 21.072] }
    },
    {
      "type": "Feature",
      "properties": { "name": "Ga Tây Hồ Tây", "line": "Tuyến 2", "status": "planned", "status_vi": "Dự kiến quy hoạch", "color": "#d97706", "type": "Ga quy hoạch" },
      "geometry": { "type": "Point", "coordinates": [105.810, 21.065] }
    },
    {
      "type": "Feature",
      "properties": { "name": "Ga Bưởi", "line": "Tuyến 2", "status": "planned", "status_vi": "Dự kiến quy hoạch", "color": "#d97706", "type": "Ga quy hoạch" },
      "geometry": { "type": "Point", "coordinates": [105.807, 21.050] }
    },
    {
      "type": "Feature",
      "properties": { "name": "Ga Quần Ngựa", "line": "Tuyến 2", "status": "planned", "status_vi": "Dự kiến quy hoạch", "color": "#d97706", "type": "Ga quy hoạch" },
      "geometry": { "type": "Point", "coordinates": [105.813, 21.042] }
    },
    {
      "type": "Feature",
      "properties": { "name": "Ga Bách Thảo", "line": "Tuyến 2", "status": "planned", "status_vi": "Dự kiến quy hoạch", "color": "#d97706", "type": "Ga quy hoạch" },
      "geometry": { "type": "Point", "coordinates": [105.827, 21.040] }
    },
    {
      "type": "Feature",
      "properties": { "name": "Ga Hồ Tây", "line": "Tuyến 2", "status": "planned", "status_vi": "Dự kiến quy hoạch", "color": "#d97706", "type": "Ga quy hoạch" },
      "geometry": { "type": "Point", "coordinates": [105.845, 21.035] }
    },
    {
      "type": "Feature",
      "properties": { "name": "Ga Hàng Bài", "line": "Tuyến 2", "status": "planned", "status_vi": "Dự kiến quy hoạch", "color": "#d97706", "type": "Ga quy hoạch" },
      "geometry": { "type": "Point", "coordinates": [105.853, 21.023] }
    },
    {
      "type": "Feature",
      "properties": { "name": "Ga Trần Hưng Đạo", "line": "Tuyến 2", "status": "planned", "status_vi": "Dự kiến quy hoạch", "color": "#d97706", "type": "Ga quy hoạch" },
      "geometry": { "type": "Point", "coordinates": [105.856, 21.018] }
    },
    {
      "type": "Feature",
      "properties": { "name": "Ga Văn Cao", "line": "Tuyến 5", "status": "planned", "status_vi": "Dự kiến quy hoạch", "color": "#d97706", "type": "Ga quy hoạch" },
      "geometry": { "type": "Point", "coordinates": [105.817, 21.043] }
    },
    {
      "type": "Feature",
      "properties": { "name": "Ga Liễu Giai", "line": "Tuyến 5", "status": "planned", "status_vi": "Dự kiến quy hoạch", "color": "#d97706", "type": "Ga quy hoạch" },
      "geometry": { "type": "Point", "coordinates": [105.812, 21.033] }
    },
    {
      "type": "Feature",
      "properties": { "name": "Ga Nguyễn Chí Thanh", "line": "Tuyến 5", "status": "planned", "status_vi": "Dự kiến quy hoạch", "color": "#d97706", "type": "Ga quy hoạch" },
      "geometry": { "type": "Point", "coordinates": [105.803, 21.020] }
    },
    {
      "type": "Feature",
      "properties": { "name": "Ga Trần Duy Hưng", "line": "Tuyến 5", "status": "planned", "status_vi": "Dự kiến quy hoạch", "color": "#d97706", "type": "Ga quy hoạch" },
      "geometry": { "type": "Point", "coordinates": [105.790, 21.007] }
    },
    {
      "type": "Feature",
      "properties": { "name": "Ga Vành Đai 3 Láng", "line": "Tuyến 5", "status": "planned", "status_vi": "Dự kiến quy hoạch", "color": "#d97706", "type": "Ga quy hoạch" },
      "geometry": { "type": "Point", "coordinates": [105.770, 20.995] }
    },
    {
      "type": "Feature",
      "properties": { "name": "Ga An Khánh", "line": "Tuyến 5", "status": "planned", "status_vi": "Dự kiến quy hoạch", "color": "#d97706", "type": "Ga quy hoạch" },
      "geometry": { "type": "Point", "coordinates": [105.720, 20.985] }
    },
    {
      "type": "Feature",
      "properties": { "name": "Ga Quy hoạch B1", "line": "Dự kiến phụ", "status": "planned", "status_vi": "Quy hoạch dự kiến", "color": "#d97706", "type": "Ga vệ tinh vùng" },
      "geometry": { "type": "Point", "coordinates": [105.850, 21.060] }
    },
    {
      "type": "Feature",
      "properties": { "name": "Ga Quy hoạch B2", "line": "Dự kiến phụ", "status": "planned", "status_vi": "Quy hoạch dự kiến", "color": "#d97706", "type": "Ga vệ tinh vùng" },
      "geometry": { "type": "Point", "coordinates": [105.860, 21.070] }
    },
    {
      "type": "Feature",
      "properties": { "name": "Ga Quy hoạch B3", "line": "Dự kiến phụ", "status": "planned", "status_vi": "Quy hoạch dự kiến", "color": "#d97706", "type": "Ga vệ tinh vùng" },
      "geometry": { "type": "Point", "coordinates": [105.875, 21.080] }
    },
    {
      "type": "Feature",
      "properties": { "name": "Ga Quy hoạch D1", "line": "Dự kiến phụ", "status": "planned", "status_vi": "Quy hoạch dự kiến", "color": "#d97706", "type": "Ga vệ tinh vùng" },
      "geometry": { "type": "Point", "coordinates": [105.830, 21.008] }
    },
    {
      "type": "Feature",
      "properties": { "name": "Ga Quy hoạch D2", "line": "Dự kiến phụ", "status": "planned", "status_vi": "Quy hoạch dự kiến", "color": "#d97706", "type": "Ga vệ tinh vùng" },
      "geometry": { "type": "Point", "coordinates": [105.820, 20.995] }
    },
    {
      "type": "Feature",
      "properties": { "name": "Ga Quy hoạch D3", "line": "Dự kiến phụ", "status": "planned", "status_vi": "Quy hoạch dự kiến", "color": "#d97706", "type": "Ga vệ tinh vùng" },
      "geometry": { "type": "Point", "coordinates": [105.835, 20.985] }
    },
    {
      "type": "Feature",
      "properties": { "name": "Ga Quy hoạch H1", "line": "Dự kiến phụ", "status": "planned", "status_vi": "Quy hoạch dự kiến", "color": "#d97706", "type": "Ga vệ tinh vùng" },
      "geometry": { "type": "Point", "coordinates": [105.860, 20.970] }
    },
    {
      "type": "Feature",
      "properties": { "name": "Ga Quy hoạch H2", "line": "Dự kiến phụ", "status": "planned", "status_vi": "Quy hoạch dự kiến", "color": "#d97706", "type": "Ga vệ tinh vùng" },
      "geometry": { "type": "Point", "coordinates": [105.870, 20.960] }
    },
    {
      "type": "Feature",
      "properties": { "name": "Ga Quy hoạch H3", "line": "Dự kiến phụ", "status": "planned", "status_vi": "Quy hoạch dự kiến", "color": "#d97706", "type": "Ga vệ tinh vùng" },
      "geometry": { "type": "Point", "coordinates": [105.850, 20.950] }
    },
    {
      "type": "Feature",
      "properties": { "name": "Ga Quy hoạch LB1", "line": "Dự kiến phụ", "status": "planned", "status_vi": "Quy hoạch dự kiến", "color": "#d97706", "type": "Ga vệ tinh vùng" },
      "geometry": { "type": "Point", "coordinates": [105.880, 21.040] }
    },
    {
      "type": "Feature",
      "properties": { "name": "Ga Quy hoạch LB2", "line": "Dự kiến phụ", "status": "planned", "status_vi": "Quy hoạch dự kiến", "color": "#d97706", "type": "Ga vệ tinh vùng" },
      "geometry": { "type": "Point", "coordinates": [105.890, 21.030] }
    },
    {
      "type": "Feature",
      "properties": { "name": "Ga Quy hoạch LB3", "line": "Dự kiến phụ", "status": "planned", "status_vi": "Quy hoạch dự kiến", "color": "#d97706", "type": "Ga vệ tinh vùng" },
      "geometry": { "type": "Point", "coordinates": [105.900, 21.020] }
    },
    {
      "type": "Feature",
      "properties": { "name": "Ga Quy hoạch CG1", "line": "Dự kiến phụ", "status": "planned", "status_vi": "Quy hoạch dự kiến", "color": "#d97706", "type": "Ga vệ tinh vùng" },
      "geometry": { "type": "Point", "coordinates": [105.770, 21.030] }
    },
    {
      "type": "Feature",
      "properties": { "name": "Ga Quy hoạch CG2", "line": "Dự kiến phụ", "status": "planned", "status_vi": "Quy hoạch dự kiến", "color": "#d97706", "type": "Ga vệ tinh vùng" },
      "geometry": { "type": "Point", "coordinates": [105.760, 21.020] }
    },
    {
      "type": "Feature",
      "properties": { "name": "Ga Quy hoạch HD1", "line": "Dự kiến phụ", "status": "planned", "status_vi": "Quy hoạch dự kiến", "color": "#d97706", "type": "Ga vệ tinh vùng" },
      "geometry": { "type": "Point", "coordinates": [105.740, 20.970] }
    },
    {
      "type": "Feature",
      "properties": { "name": "Ga Quy hoạch HD2", "line": "Dự kiến phụ", "status": "planned", "status_vi": "Quy hoạch dự kiến", "color": "#d97706", "type": "Ga vệ tinh vùng" },
      "geometry": { "type": "Point", "coordinates": [105.730, 20.960] }
    }
  ]
}
